Restaurant Name,District,Neighborhood,Address,Price (Two Sides),Latitude,Longitude,WKT,Address (Eng)
泰風情,Kowloon City District,Kowloon City,衙前圍道62號,$36,22.329065,114.190603,POINT Z (114.190603 22.329065 0),"Kam Fai Mansion, 60-62 Nga Tsin Wai Rd, Kowloon City, Hong Kong"
張和隆飯店,Kowloon City District,Kowloon City,九龍城賈炳達道65號,$33,22.3304273,114.1906096,POINT Z (114.1906096 22.3304273 0),"65 Carpenter Rd, Kowloon City, Hong Kong"
Aeon,Kowloon City District,Kowloon City,賈炳達道128號,$37,22.330988,114.188216,POINT Z (114.188216 22.330988 0),"128號 Carpenter Rd, Kowloon City, Hong Kong"
Another Choice,Kowloon City District,Kowloon Tong,又一村海棠路21-31號,$30,22.3313166,114.1727118,POINT Z (114.1727118 22.3313166 0),"Hong Kong, Yau Yat Chuen, Begonia Rd, 21-31號又一廣場"
Taste ,Kowloon City District,Kowloon Tong,九龍塘達之路80號,$38,22.33688,114.1753096,POINT Z (114.1753096 22.33688 0),"80 Tat Chee Ave, Kowloon Tong, Hong Kong"
千味家,Kwun Tong District,Kowloon Bay,九龍灣偉業街33號,$43,22.32237,114.212493,POINT Z (114.212493 22.32237 0),"33 Wai Yip St, Kowloon Bay, Hong Kong"
百樂金宴,Kwun Tong District,Kowloon Bay,九龍灣宏光道39 號,$36,22.3264211,114.2055206,POINT Z (114.2055206 22.3264211 0),"Skyline Tower, 39 Wang Kwong Rd, Kowloon Bay, Hong Kong"
明興美食,Kwun Tong District,Kowloon Bay,九龍灣啓業道18號,$30,22.3291804,114.2099209,POINT Z (114.2099209 22.3291804 0),"18 Kai Yip Rd, Kowloon Bay, Hong Kong"
素食軒,Kwun Tong District,Kowloon Bay,九龍九龍灣展貿徑1號,,22.323968,114.203765,POINT Z (114.203765 22.323968 0),"1 Trademart Dr, Kowloon Bay, Hong Kong"
煮場館,Kwun Tong District,Kowloon Bay,牛頭角道77號,$25,22.3244614,114.2163021,POINT Z (114.2163021 22.3244614 0),"77 Ngau Tau Kok Rd, Ngau Tau Kok, Hong Kong"
超人燒鵝,Kwun Tong District,Kowloon Bay,牛頭角道15號,$35,22.3262794,114.2148319,POINT Z (114.2148319 22.3262794 0),"Jade Field Garden Ka Lai Building, 15 Ngau Tau Kok Rd, Jordan Valley, Hong Kong"
德利美食,Kwun Tong District,Kowloon Bay,九龍牛頭角彩福邨第三期地下,$28,22.3278942,114.2170965,POINT Z (114.2170965 22.3278942 0),"58號 Choi Wing Rd, Ping Shan, Hong Kong"
興華美食,Kwun Tong District,Kowloon Bay,九龍九龍灣宏開道13號,$34,22.32245,114.2105,POINT Z (114.2105 22.32245 0),"Kingsford Industrial Centre, 13 Wang Hoi Rd, Kowloon Bay, Hong Kong"
禮記外賣站,Kwun Tong District,Kowloon Bay,九龍灣宏開道13號,$28,22.3224695,114.2107595,POINT Z (114.2107595 22.3224695 0),"Kingsford Industrial Centre, 13 Wang Hoi Rd, Kowloon Bay, Hong Kong"
禮記美食中心,Kwun Tong District,Kowloon Bay,宏泰道12號,$30,22.3230445,114.2092359,POINT Z (114.2092359 22.3230445 0),"Wing Fat Industrial Building, 12 Wang Tai Rd, Kowloon Bay, Hong Kong"
Market Place ,Kwun Tong District,Kowloon Bay,九龍灣偉業街33號,$34,22.3233216,114.2135647,POINT Z (114.2135647 22.3233216 0),"33 Wai Yip St, Kowloon Bay, Hong Kong"
民天小廚,North District,Sheung Shui,上水新樂街36A號,$32,22.5033361,114.1283413,POINT Z (114.1283413 22.5033361 0),"36 San Lok St, Sheung Shui, Hong Kong"
李記快餐店,North District,Sheung Shui,上水符興街1號,$30,22.5044651,114.1294339,POINT Z (114.1294339 22.5044651 0),"1 Fu Hing St, Sheung Shui, Hong Kong"
岱民天平店,North District,Sheung Shui,新界上水天平路48號,$25,22.503554,114.1338055,POINT Z (114.1338055 22.503554 0),"48 Tin Ping Rd, 天平邨 Hong Kong"
盛意小館,North District,Sheung Shui,龍琛路14號,$30,22.503753,114.129747,POINT Z (114.129747 22.503753 0),"14 Lung Sum Ave, Sheung Shui, Hong Kong"
惠康超級廣場,North District,Sheung Shui,上水智昌路9號,$32,22.50118373,114.1314788,POINT Z (114.1314788 22.50118373 0),"9 Chi Cheong Rd, Sheung Shui, Hong Kong"
膳廚,North District,Sheung Shui,上水新成路88號,$30,22.50471,114.128865,POINT Z (114.128865 22.50471 0),"88 San Shing Ave, Sheung Shui, Hong Kong"
上環食堂,Central and Western District,Sheung Wan,皇后大道中222-226 號,$42,22.2845497,114.1518546,POINT Z (114.1518546 22.2845497 0),"Kai Wong Commercial Building, 222-226 Queen's Road Central, Hong Kong"
千鳥美食,Central and Western District,Sheung Wan,上環東來里2號,$36,22.286902,114.1500231,POINT Z (114.1500231 22.286902 0),"2 Tung Loi Ln, Sheung Wan, Hong Kong"
北冰洋,Central and Western District,Sheung Wan,永樂街58號,$36,22.2863611,114.1516802,POINT Z (114.1516802 22.2863611 0),"Cheong Fat House, 56-58 Wing Lok St, Sheung Wan, Hong Kong"
平記餐廳,Central and Western District,Sheung Wan,皇后大道西165號,$40,22.2868172,114.1454101,POINT Z (114.1454101 22.2868172 0),"165 Queen's Rd W, Sheung Wan, Hong Kong"
百姓飯店,Central and Western District,Sheung Wan,上環皇后大道中345號,$42,22.28636,114.14981,POINT Z (114.14981 22.28636 0),"Sheung Wan Municipal Services Building, 345 Queen's Road Central, Sheung Wan, Hong Kong"
岱民上環店,Central and Western District,Sheung Wan,上環文咸東街60-62號,$25,22.2857933,114.1508792,POINT Z (114.1508792 22.2857933 0),"Kamcourt Building, 60 Bonham Strand, Sheung Wan, Hong Kong"
知飯,Central and Western District,Sheung Wan,上環蘇杭街138號,$48,22.2858457,114.150059,POINT Z (114.150059 22.2858457 0),"138號 Jervois St, Sheung Wan, Hong Kong"
星星小菜,Central and Western District,Sheung Wan,上環皇后大道中345號,,22.28609,114.14963,POINT Z (114.14963 22.28609 0),"Sheung Wan Municipal Services Building, 345 Queen's Road Central, Sheung Wan, Hong Kong"
望月軒 ,Central and Western District,Sheung Wan,上環干諾道中168-200號,$55,22.2879654,114.1511831,POINT Z (114.1511831 22.2879654 0),"268, 168-200 Connaught Rd Central, Sheung Wan, Hong Kong"
添飯餸,Central and Western District,Sheung Wan,蘇杭街 1 號,$30,22.2852549,114.1526949,POINT Z (114.1526949 22.2852549 0),"1 Jervois St, Sheung Wan, Hong Kong"
麥銳記大眾福食,Central and Western District,Sheung Wan,上環皇后大道中345號,$43,22.28629,114.1497,POINT Z (114.1497 22.28629 0),"Sheung Wan Municipal Services Building, 345 Queen's Road Central, Sheung Wan, Hong Kong"
尋味兩餸飯,Central and Western District,Sheung Wan,上環永和街17號,$30,22.2851764,114.1538585,POINT Z (114.1538585 22.2851764 0),"Wai Hing Commercial Building, 17-19 Wing Wo St, Central, Hong Kong"
雲記美食,Central and Western District,Sheung Wan,上環皇后大道中305-313號,$49,22.2852034,114.1503713,POINT Z (114.1503713 22.2852034 0),"Centre Mark 2, 305-313號 Queen's Road Central, Sheung Wan, Hong Kong"
德記茶餐廳,Central and Western District,Sheung Wan,上環畢街3號,$44,22.2853006,114.1517676,POINT Z (114.1517676 22.2853006 0),"3 Burd Street, 3 Burd St, Sheung Wan, Hong Kong"
寶興美食快餐,Central and Western District,Sheung Wan,高陞街48-66號,$33,22.2870671,114.145893,POINT Z (114.145893 22.2870671 0),"Ko Shing Building, 48-66 Ko Shing St, Sheung Wan, Hong Kong"
9號美食,Kowloon City District,To Kwa Wan,馬頭圍道450號,$37,22.3198984,114.1873823,POINT Z (114.1873823 22.3198984 0),"450 Ma Tau Wai Rd, To Kwa Wan, Hong Kong"
三多美食,Kowloon City District,To Kwa Wan,北帝街27號,$33,22.320838,114.1880445,POINT Z (114.1880445 22.320838 0),"27 Pak Tai Street, 27 Pak Tai St, To Kwa Wan, Hong Kong"
三寶小食,Kowloon City District,To Kwa Wan,土瓜灣馬頭圍道354號,$33,22.3178195,114.187433,POINT Z (114.187433 22.3178195 0),"324-354 Ma Tau Wai Road, Ma Tau Wai Rd, To Kwa Wan, Hong Kong"
包伙食,Kowloon City District,To Kwa Wan,土瓜灣下鄉道36號,$30,22.3175734,114.1894981,POINT Z (114.1894981 22.3175734 0),"Wah Keung Building, 36 Ha Heung Rd, To Kwa Wan, Hong Kong"
佳記茶餐廰,Kowloon City District,To Kwa Wan,土瓜灣馬頭圍道165號,,22.3172238,114.1880992,POINT Z (114.1880992 22.3172238 0),"165 Ma Tau Wai Rd, To Kwa Wan, Hong Kong"
家餸小廚,Kowloon City District,To Kwa Wan,馬頭涌北帝街58號,$32,22.3223471,114.1893588,POINT Z (114.1893588 22.3223471 0),"Metropolitan Rise, 58 Pak Tai St, Ma Tau Chung, Hong Kong"
泰靚小廚,Kowloon City District,To Kwa Wan,馬頭角道58號,$30,22.321791,114.1904079,POINT Z (114.1904079 22.321791 0),"58 Ma Tau Kok Rd, Ma Tau Chung, Hong Kong"
高山三和美食,Kowloon City District,To Kwa Wan,土瓜灣馬頭角道9號,$28,22.3222026,114.1887806,POINT Z (114.1887806 22.3222026 0),"3-9 Ma Tau Kok Road, 3-9 Ma Tau Kok Rd, To Kwa Wan, Hong Kong"
港明美食,Kowloon City District,To Kwa Wan,土瓜灣道249-259號,$30,22.3162903,114.1900322,POINT Z (114.1900322 22.3162903 0),"Tung Hing Building, 249-259 To Kwa Wan Rd, To Kwa Wan, Hong Kong"
熊貓美食,Kowloon City District,To Kwa Wan,土瓜灣道275號,$32,22.31672,114.19035,POINT Z (114.19035 22.31672 0),"275 To Kwa Wan Rd, To Kwa Wan, Hong Kong"
譽記美食,Kowloon City District,To Kwa Wan,土瓜灣馬坑涌道2C號,$35,22.31997,114.18819,POINT Z (114.18819 22.31997 0),"2 Ma Hang Chung Rd, To Kwa Wan, Hong Kong"
Fusion,Kowloon City District,To Kwa Wan,九龍土瓜灣馬頭角道33號,$32,22.32196606,114.1894778,POINT Z (114.1894778 22.32196606 0),"33 Ma Tau Kok Rd, To Kwa Wan, Hong Kong"
迪自由快餐,Eastern District,Tai Hang,浣紗街20-22號,$28,22.2784825,114.1925869,POINT Z (114.1925869 22.2784825 0),"Sai See Mansion, 20-22 Wun Sha St, Tai Hang, Hong Kong"
包點鉅人,Yau Tsim Mong District,Tai Kok Tsui,大角咀道113號,$29,22.321647,114.161766,POINT Z (114.161766 22.321647 0),"113號 Tai Kok Tsui Rd, Tai Kok Tsui, Hong Kong"
金潤餐廳,Yau Tsim Mong District,Tai Kok Tsui,博文街16號,$41,22.3195606,114.1612613,POINT Z (114.1612613 22.3195606 0),"16 Pok Man St, Tai Kok Tsui, Hong Kong"
健康煮意,Yau Tsim Mong District,Tai Kok Tsui,大角咀海庭道18號,$45,22.31738,114.16276,POINT Z (114.16276 22.31738 0),"18號 Hoi Ting Rd, Tai Kok Tsui, Hong Kong"
陳明發燒味館,Yau Tsim Mong District,Tai Kok Tsui,大角咀塘尾道55號,$35,22.3200125,114.1656026,POINT Z (114.1656026 22.3200125 0),"Sun Hing Steel Furniture Commercial Building, 55 Tong Mi Rd, Tai Kok Tsui, Hong Kong"
嘿！食個米飯,Yau Tsim Mong District,Tai Kok Tsui,中匯街1號,$35,22.322357,114.161439,POINT Z (114.161439 22.322357 0),"1 Chung Wui St, Tai Kok Tsui, Hong Kong"
廣潤美食,Yau Tsim Mong District,Tai Kok Tsui,大角咀埃華街63號,$28,22.3213279,114.1615229,POINT Z (114.1615229 22.3213279 0),"63 Ivy St, Tai Kok Tsui, Hong Kong"
Market Place,Yau Tsim Mong District,Tai Kok Tsui,大角咀海庭號18號,$34,22.31602,114.16175,POINT Z (114.16175 22.31602 0),"号, 18 Hoi Ting Rd, Mong Kok, Hong Kong"
4號烤吧,Tai Po District,Tai Po,翠樂街6號,$25,22.4527305,114.1644242,POINT Z (114.1644242 22.4527305 0),"6 Chui Lok St, Tai Po, Hong Kong"
一田超市,Tai Po District,Tai Po,大埔安邦路8-10號,$36,22.4514767,114.1709264,POINT Z (114.1709264 22.4514767 0),"8 & 10 On Pong Rd, Tai Po, Hong Kong"
包點先生,Tai Po District,Tai Po,大埔廣福道100號,$29,22.4482037,114.1675606,POINT Z (114.1675606 22.4482037 0),"Hung Fat Building, 94-100 Kwong Fuk Rd, Tai Po, Hong Kong"
好味美食,Tai Po District,Tai Po,懷仁街2號,$28,22.4485924,114.1654981,POINT Z (114.1654981 22.4485924 0),"No. 2, Huairen St, Banqiao District, New Taipei City, Taiwan 220"
岱民大埔店,Tai Po District,Tai Po,大埔安埔路12號,$25,22.453701,114.1748428,POINT Z (114.1748428 22.453701 0),"12 On Po Rd, Tai Po, Hong Kong"
岱民廣福店,Tai Po District,Tai Po,寶湖道28號,$25,22.4490476,114.1746419,POINT Z (114.1746419 22.4490476 0),"28 Plover Cove Rd, Tai Po, Hong Kong"
玲瓏巧點功房,Tai Po District,Tai Po,安慈路3號,$35,22.4532762,114.1679156,POINT Z (114.1679156 22.4532762 0),"3 On Chee Rd, Tai Po, Hong Kong"
紅葉開飯,Tai Po District,Tai Po,大埔鄉事會街19號,$30,22.44696756,114.166474,POINT Z (114.166474 22.44696756 0),"Lai Chun Building, 17-19 Heung Sze Wui St, Tai Po, Hong Kong"
家常便飯,Tai Po District,Tai Po,汀角路17號,$28,22.4523951,114.1652311,POINT Z (114.1652311 22.4523951 0),"Ting Kok Building, 17 Ting Kok Rd, Tai Po, Hong Kong"
高山,Tai Po District,Tai Po,廣福道103A,$28,22.448416,114.1678318,POINT Z (114.1678318 22.448416 0),"103 Kwong Fuk Rd, Tai Po, Hong Kong"
彬客料理,Tai Po District,Tai Po,安泰路1號,$35,22.452909,114.170445,POINT Z (114.170445 22.452909 0),"1 On Tai Rd, Tai Po, Hong Kong"
德利小廚,Tai Po District,Tai Po,大埔太和路12號,$30,22.4525167,114.1616482,POINT Z (114.1616482 22.4525167 0),"12 Tai Po Tai Wo Rd, Tai Wo Estate, Hong Kong"
三餸一湯,Sha Tin District,Tai Wai,大圍道46號,$28,22.3749941,114.1780034,POINT Z (114.1780034 22.3749941 0),"Mei Lun House, 46 Tai Wai Rd, Tai Wai, Hong Kong"
盆滿缽滿,Sha Tin District,Tai Wai,大圍美田路30號,$34,22.3781722,114.176093,POINT Z (114.176093 22.3781722 0),"30 Mei Tin Rd, Tai Wai, Hong Kong"
超人燒鵝,Sha Tin District,Tai Wai,大圍道1-35號,$32,22.3757767,114.1770513,POINT Z (114.1770513 22.3757767 0),"Kam Shan Building, 1-35 Tai Wai Rd, Tai Wai, Hong Kong"
嘉餸,Sha Tin District,Tai Wai,沙田田心街1號,$37,22.3678762,114.1791591,POINT Z (114.1791591 22.3678762 0),"1號 Tin Sam St, Tai Wai, Hong Kong"
德利美食,Sha Tin District,Tai Wai,大圍車公廟路69號,$30,22.3635027,114.1720137,POINT Z (114.1720137 22.3635027 0),"69 Che Kung Miu Rd, Tai Wai, Hong Kong"
四季美食,Tsuen Wan District,Tai Wo Hau,大窩口道15號,$25,22.3683045,114.1237371,POINT Z (114.1237371 22.3683045 0),"15 Tai Wo Hau Rd, Kwai Chung, Hong Kong"
岱民荃灣店,Tsuen Wan District,Tai Wo Hau,,$25,22.3695987,114.1241536,POINT Z (114.1241536 22.3695987 0),
岱民本灣店,Eastern District,Siu Sai Wan,小西灣道10號,$25,22.2625908,114.2490296,POINT Z (114.2490296 22.2625908 0),"10 Siu Sai Wan Rd, Siu Sai Wan, Hong Kong"
香港人兩餸飯,Eastern District,Siu Sai Wan,小西灣小西灣道9號,$32,22.2645905,114.2484139,POINT Z (114.2484139 22.2645905 0),"9 Siu Sai Wan Rd, Siu Sai Wan, Hong Kong"
祥記美食,Eastern District,Siu Sai Wan,小西灣道18號,$30,22.262514,114.2513136,POINT Z (114.2513136 22.262514 0),"18 Siu Sai Wan Rd, Siu Sai Wan, Hong Kong"
超人燒鵝,Eastern District,Siu Sai Wan,柴灣小西灣道23號,$32,22.2628253,114.2498464,POINT Z (114.2498464 22.2628253 0),"Cheerful Garden Block 3, 23 Siu Sai Wan Rd, Siu Sai Wan, Hong Kong"
岱民中環店,Central and Western District,Central,中環嘉咸街5號 ,$25,22.2837578,114.1543899,POINT Z (114.1543899 22.2837578 0),"5 Graham St, Central, Hong Kong"
河內小廚,Central and Western District,Central,中環機利文新街8-12號,$48,22.2847059,114.1540296,POINT Z (114.1540296 22.2847059 0),"8 Gilman's Bazaar, Central, Hong Kong"
革新會,Central and Western District,Central,租庇利街10號,$43,22.2839846,114.1549663,POINT Z (114.1549663 22.2839846 0),"10 Jubilee St, Central, Hong Kong"
添飯餸,Central and Western District,Central,中環威靈頓街49a號,$30,22.2824175,114.1551523,POINT Z (114.1551523 22.2824175 0),"Sun Lee Building, 43-49 Wellington St, Central, Hong Kong"
福祿壽健康素食,Central and Western District,Central,中環鐵行里 8號地下 ,$35,22.2846988,114.1552277,POINT Z (114.1552277 22.2846988 0),"8 Tit Hong Ln, Central, Hong Kong"
Chapter,Central and Western District,Central,中環金融街8號,$75,22.2855368,114.1592,POINT Z (114.1592 22.2855368 0),"8 Finance St, Central, Hong Kong"
KiKusan,Central and Western District,Central,畢打街15號,$69,22.2814477,114.158056,POINT Z (114.158056 22.2814477 0),"15 Pedder St, Central, Hong Kong"
元朗小炒王,Yuen Long District,Yuen Long,元朗炮仗坊11號,$35,22.4455267,114.0291656,POINT Z (114.0291656 22.4455267 0),"11 Yuen Long Pau Cheung Square, Yuen Long, Hong Kong"
民天廚房,Yuen Long District,Yuen Long,元朗泰衡街2-6號,$32,22.4464732,114.0299591,POINT Z (114.0299591 22.4464732 0),"Tai Hang Building, 2-6 Yuen Long Tai Hang St, Yuen Long, Hong Kong"
民旺元朗店,Yuen Long District,Yuen Long,元朗鳳琴街22號,$28,22.44339,114.033665,POINT Z (114.033665 22.44339 0),"22 Fung Kam St, Yuen Long, Hong Kong"
众興燒臘飯店,Yuen Long District,Yuen Long,元朗福德街44號,$35,22.44585761,114.0277122,POINT Z (114.0277122 22.44585761 0),"Sun Yue Building, 44 Fook Tak St, Yuen Long, Hong Kong"
好滿意美食,Yuen Long District,Yuen Long,元朗安寧路136A,$35,22.446264,114.0238245,POINT Z (114.0238245 22.446264 0),"136 Yuen Long On Ning Rd, Yuen Long, Hong Kong"
幸運來美食,Yuen Long District,Yuen Long,俊賢坊18號,$30,22.44643507,114.0234765,POINT Z (114.0234765 22.44643507 0),"Kuen Yick Building, 18 Chun Yin Square, Yuen Long, Hong Kong"
金稻苑餐廳,Yuen Long District,Yuen Long,元朗同樂街10-16號,$35,22.4453881,114.0282197,POINT Z (114.0282197 22.4453881 0),"Kam Wah Building, 10-16 Tung Lok St, Yuen Long, Hong Kong"
家之味美食,Yuen Long District,Yuen Long,壽富街33,$29,22.4449673,114.0270117,POINT Z (114.0270117 22.4449673 0),"Holly Building, 33 Sau Fu St, Yuen Long, Hong Kong"
高山,Yuen Long District,Yuen Long,安寧路138號,$30,22.44629,114.02346,POINT Z (114.02346 22.44629 0),"Tse King House Stage 2, 138 Yuen Long On Ning Rd, Yuen Long, Hong Kong"
添添廚房,Yuen Long District,Yuen Long,鳯攸南街3號,$34,22.4420336,114.0335841,POINT Z (114.0335841 22.4420336 0),"Fung Yau St S, Yuen Long, Hong Kong"
蛇王品,Yuen Long District,Yuen Long,元朗又新街7-25號,$30,22.4439458,114.031286,POINT Z (114.031286 22.4439458 0),"Yuen San Building, 7 Yau San St, Yuen Long, Hong Kong"
富成,Yuen Long District,Yuen Long,元朗橋壽徑,$38,22.444826,114.027193,POINT Z (114.027193 22.444826 0),"Kiu Sau Path, Yuen Long, Hong Kong"
圓師奶,Yuen Long District,Yuen Long,元朗水邊圍福田徑2-16號,$39,22.4464979,114.0218237,POINT Z (114.0218237 22.4464979 0),"2-16號 Fuk Tin Path, Yuen Long, Hong Kong"
榮耀包點,Yuen Long District,Yuen Long,谷亭街11號,$32,22.4450943,114.0301141,POINT Z (114.0301141 22.4450943 0),"11 Kuk Ting St, Yuen Long, Hong Kong"
齊記美食,Yuen Long District,Yuen Long,屏昌徑14-48號,$36,22.44674,114.02297,POINT Z (114.02297 22.44674 0),"14 Ping Cheong Path, Yuen Long, Hong Kong"
億家餸元朗店,Yuen Long District,Yuen Long,元朗鳳翔路69號,$28,22.4421927,114.0325172,POINT Z (114.0325172 22.4421927 0),"Kin Fai Building, 69 Fung Cheung Rd, Yuen Long, Hong Kong"
餸師傅元朗店,Yuen Long District,Yuen Long,元朗同樂街16號,$30,22.4453881,114.0282197,POINT Z (114.0282197 22.4453881 0),"Kam Wah Building, 10-16 Tung Lok St, Yuen Long, Hong Kong"
UNY生活創庫,Yuen Long District,Yuen Long,新界元朗教育路1號,$38,22.4426028,114.028452,POINT Z (114.028452 22.4426028 0),"1 Kau Yuk Rd, Yuen Long, Hong Kong"
住家菜,Yuen Long District,Tin Shui Wai,天水圍天湖路1號,$41,22.4522537,114.0004029,POINT Z (114.0004029 22.4522537 0),"1 Tin Wu Rd, Tin Shui Wai, Hong Kong"
迪自由快餐,Yuen Long District,Tin Shui Wai,天瑞路88號,$28,22.4682997,114.0005192,POINT Z (114.0005192 22.4682997 0),"88 Tin Shui Rd, Tin Shui Wai, Hong Kong"
家之味美食,Yuen Long District,Tin Shui Wai,天水圍天澤街市,$29,22.4683558,113.9987891,POINT Z (113.9987891 22.4683558 0),"Tin Chak Shopping Centre, Tin Shui Rd, Tin Shui Wai, Hong Kong"
家常便飯,Yuen Long District,Tin Shui Wai,天水圍天靖街3號,$37,22.4489064,114.0027874,POINT Z (114.0027874 22.4489064 0),"3 Tin Ching St, Tin Shui Wai, Hong Kong"
超人燒鵝,Yuen Long District,Tin Shui Wai,天水圍天瑞路88號,$32,22.46838737,114.0003822,POINT Z (114.0003822 22.46838737 0),"88 Tin Shui Rd, Tin Shui Wai, Hong Kong"
鼎笙食坊,Yuen Long District,Tin Shui Wai,天水圍天瑞路9號,$35,22.4561072,113.9984839,POINT Z (113.9984839 22.4561072 0),"9 Tin Shui Rd, Tin Shui Wai, Hong Kong"
龍華開心美食,Yuen Long District,Tin Shui Wai,天水圍天湖路1號,$39,22.45199743,114.000645,POINT Z (114.000645 22.45199743 0),"1 Tin Wu Rd, Tin Shui Wai, Hong Kong"
Fusion BY PARKnSHOP,Yuen Long District,Tin Shui Wai,天水圍天華路33號,$32,22.4623383,113.9980666,POINT Z (113.9980666 22.4623383 0),"33 Tin Wah Rd, Tin Shui Wai, Hong Kong"
GAMMA廚房,Yuen Long District,Tin Shui Wai,屏山屏廈路65號,$38,22.4460042,114.0043991,POINT Z (114.0043991 22.4460042 0),"65 Ping Ha Rd, Ping Shan, Hong Kong"
乜餸小廚,Eastern District,Tin Hau,天后電氣道68-70號,$35,22.2840461,114.1917838,POINT Z (114.1917838 22.2840461 0),"68 Electric Rd, North Point, Hong Kong"
天天素食,Eastern District,Tin Hau,天后英皇道14號,$45,22.28276,114.1927027,POINT Z (114.1927027 22.28276 0),"Kiu Hing Mansion, 14 King's Rd, Causeway Bay, Hong Kong"
金舫美食,Eastern District,Tin Hau,興發街88號,$35,22.2857193,114.1907985,POINT Z (114.1907985 22.2857193 0),"Hong Kong, Causeway Bay, Hing Fat St, 88號興發街88號"
港營美食,Eastern District,Tin Hau,木星街33號,$28,22.2864215,114.1919834,POINT Z (114.1919834 22.2864215 0),"33 Jupiter St, Causeway Bay, Hong Kong"
金發燒臘飯店,Yau Tsim Mong District,Prince Edward,柏樹街25號,$35,22.32558,114.166842,POINT Z (114.166842 22.32558 0),"25 Cedar St, Mong Kok, Hong Kong"
熊貓美食,Sham Shui Po District,Prince Edward,界限街41號B,$32,22.3266063,114.1672545,POINT Z (114.1672545 22.3266063 0),"b, Hang Shun Building, 27-41 Boundary St, Tong Mi, Hong Kong"
APITA,Eastern District,Taikoo Shing,香港鰂魚涌太古城道18號,$40,22.28674253,114.2174768,POINT Z (114.2174768 22.28674253 0),"18 Tai Koo Shing Rd, Quarry Bay, Hong Kong"
一田超市,Tuen Mun District,Tuen Mun,新墟屯門鄉事會路83號,$36,22.3953946,113.9739056,POINT Z (113.9739056 22.3953946 0),"V city, 83 Tuen Mun Heung Sze Wui Rd, Tuen Mun, Hong Kong"
三和美食,Tuen Mun District,Tuen Mun,青山坊2號,$30,22.3888073,113.9793187,POINT Z (113.9793187 22.3888073 0),"Wah Lok Mansion, 2 Tsing Shan Square, Tuen Mun, Hong Kong"
千味家健康食堂,Tuen Mun District,Tuen Mun,屯門屯順街1號,$36,22.3930073,113.9765973,POINT Z (113.9765973 22.3930073 0),"1 Tuen Shun St, Tuen Mun, Hong Kong"
正記屯門店,Tuen Mun District,Tuen Mun,新墟井財街21號,$30,22.4013699,113.9776925,POINT Z (113.9776925 22.4013699 0),"Hip Pont Building, 21 Tseng Choi St, San Hui, Hong Kong"
自家人酒家,Tuen Mun District,Tuen Mun,屯門湖翠路12號,$30,22.37427713,113.9611365,POINT Z (113.9611365 22.37427713 0),"12 Wu Chui Rd, Tuen Mun, Hong Kong"
岱民山景店,Tuen Mun District,Tuen Mun,屯門鳴琴路1號,$25,22.396613,113.96553,POINT Z (113.96553 22.396613 0),"1 Ming Kum Rd, Tuen Mun, Hong Kong"
岱民兆禧店,Tuen Mun District,Tuen Mun,湖翠路201號,$25,22.3734007,113.9659133,POINT Z (113.9659133 22.3734007 0),"201 Wu Chui Rd, Tuen Mun, Hong Kong"
花姐美食,Tuen Mun District,Tuen Mun,屯門青海圍青河坊2號,$40,22.3879817,113.9791561,POINT Z (113.9791561 22.3879817 0),"Man Bo Building, 2 Tsing Hoi Circuit, Tuen Mun, Hong Kong"
金上海,Tuen Mun District,Tuen Mun,田景路31號,$38,22.4066626,113.9630687,POINT Z (113.9630687 22.4066626 0),"31 Tin King Rd, Tuen Mun, Hong Kong"
品味美食,Tuen Mun District,Tuen Mun,屯門欣田邨,$30,22.414411,113.9766664,POINT Z (113.9766664 22.414411 0),"Tsz Tin Rd, Tuen Mun, Hong Kong"
迪自由快餐,Tuen Mun District,Tuen Mun,龍門路43號,$28,22.38560127,113.9668685,POINT Z (113.9668685 22.38560127 0),"43 Lung Mun Rd, Tuen Mun, Hong Kong"
食好D,Tuen Mun District,Tuen Mun,啟發徑8號,$33,22.395061,113.976031,POINT Z (113.976031 22.395061 0),"Hong Kong, San Hui, 啓發徑8號"
家之味,Tuen Mun District,Tuen Mun,新界屯門田景路31號,$33,22.4062979,113.9628899,POINT Z (113.9628899 22.4062979 0),"景, 31 So Kwun Wat Rd, So Kwun Wat, Hong Kong"
家之味美食,Tuen Mun District,Tuen Mun,龍門路45號,$28,22.3835729,113.9648713,POINT Z (113.9648713 22.3835729 0),"45 Lung Mun Rd, Tuen Mun, Hong Kong"
家之味美食,Tuen Mun District,Tuen Mun,石排頭路15號,$28,22.4009269,113.972442,POINT Z (113.972442 22.4009269 0),"15 Shek Pai Tau Rd, Tuen Mun, Hong Kong"
家之樂住家餸,Tuen Mun District,Tuen Mun,屯門湖翠路,$28,22.37475,113.96075,POINT Z (113.96075 22.37475 0),"Wu Chui Rd, Butterfly Beach, Hong Kong"
家常便飯,Tuen Mun District,Tuen Mun,屯門鄉事會路2A號,$30,22.3878435,113.9752328,POINT Z (113.9752328 22.3878435 0),"2A Tuen Mun Heung Sze Wui Rd, Tuen Mun, Hong Kong"
笑口常開,Tuen Mun District,Tuen Mun,嗚琴路99號,$32,22.40963,113.96674,POINT Z (113.96674 22.40963 0),"99 Ming Kum Rd, Tuen Mun, Hong Kong"
清荷淨葉 Veggies Lotus,Tuen Mun District,Tuen Mun,屯門良德街12號,,22.40774859,113.9682496,POINT Z (113.9682496 22.40774859 0),
喜樂美食,Tuen Mun District,Tuen Mun,屯門青河坊3號,$30,22.3883782,113.9792722,POINT Z (113.9792722 22.3883782 0),"Lee Bo Building, 3 Tsing Ho Square, Tuen Mun, Hong Kong"
富萬稼,Tuen Mun District,Tuen Mun,屯門藍地大街24號,$36,22.4190499,113.9834659,POINT Z (113.9834659 22.4190499 0),"24 Lam Tei Main St, Tuen Mun, Hong Kong"
超人燒鵝,Tuen Mun District,Tuen Mun,新墟仁政街5號,$35,22.3958497,113.9749255,POINT Z (113.9749255 22.3958497 0),"5 Yan Ching St, San Hui, Hong Kong"
飯飯掂,Tuen Mun District,Tuen Mun,良德街9號,$32,22.409212,113.9675628,POINT Z (113.9675628 22.409212 0),"9 Leung Tak St, Tuen Mun, Hong Kong"
新龍城點心小廚,Tuen Mun District,Tuen Mun,新界屯門,$40,22.40937011,113.966587,POINT Z (113.966587 22.40937011 0),"Tuen Mun, Hong Kong"
聚鍠亭緣,Tuen Mun District,Tuen Mun,景峰徑2號,$35,22.40328987,113.9797969,POINT Z (113.9797969 22.40328987 0),"Prime View Garden Block 3, King Fung Path, San Hui, Hong Kong"
齊記美食,Tuen Mun District,Tuen Mun,屯門友愛路,$36,22.3884811,113.9744989,POINT Z (113.9744989 22.3884811 0),"Yau Oi Rd, Tuen Mun, Hong Kong"
齊記美食,Tuen Mun District,Tuen Mun,屯門區青菱徑3號,$36,22.4021827,113.9782849,POINT Z (113.9782849 22.4021827 0),"Tung Wai Court, 3 Tsing Ling Path, San Hui, Hong Kong"
齊記美食,Tuen Mun District,Tuen Mun,屯門湖翠路1號,$38,22.37512385,113.9631128,POINT Z (113.9631128 22.37512385 0),"1 Wu Chui Rd, Tuen Mun, Hong Kong"
燒味皇后,Tuen Mun District,Tuen Mun,景峰徑2號,$36,22.40307,113.97972,POINT Z (113.97972 22.40307 0),"Prime View Garden Block 3, King Fung Path, San Hui, Hong Kong"
雞中寶,Tuen Mun District,Tuen Mun,龍門居,$35,22.38479,113.9663157,POINT Z (113.9663157 22.38479 0),"43號 Lung Mun Rd, Tuen Mun, Hong Kong"
Aeon,Tuen Mun District,Tuen Mun,新界屯門屯順街1 號,$36,22.392641,113.976655,POINT Z (113.976655 22.392641 0),"1 Tuen Shun St, Tuen Mun, Hong Kong"
大大碟三餸飯,Sha Tin District,Fo Tan,火炭坳背灣街33-35號,$30,22.39729202,114.1952254,POINT Z (114.1952254 22.39729202 0),"Century Industrial Centre, 33-35 Au Pui Wan St, Fo Tan, Hong Kong"
老友記美食,Sha Tin District,Fo Tan,火炭坳背灣街20-24號,$42,22.3980826,114.1946805,POINT Z (114.1946805 22.3980826 0),"20-24 Au Pui Wan St, Fo Tan, Hong Kong"
飯規,Sha Tin District,Fo Tan,火炭黃竹洋街15-21號,$48,22.3980314,114.1895481,POINT Z (114.1895481 22.3980314 0),"15-21 Wong Chuk Yeung St, Fo Tan, Hong Kong"
孖記廚房,Kwun Tong District,Ngau Chi Wan,九龍牛池灣清水灣道45號,$30,22.3331197,114.2153672,POINT Z (114.2153672 22.3331197 0),"45 Clear Water Bay Rd, Ngau Chi Wan, Hong Kong"
富源潮州打冷美食,Wong Tai Sin District,Ngau Chi Wan,華池徑,$32,22.33519541,114.2082921,POINT Z (114.2082921 22.33519541 0),"Wah Chi Path, Ngau Chi Wan, Hong Kong"
三興,Kwun Tong District,Ngau Tau Kok,大業街29號,,22.31670184,114.214814,POINT Z (114.214814 22.31670184 0),"Ocean Industrial Building, 29 Tai Yip St, Ngau Tau Kok, Hong Kong"
牛下合利小廚,Kwun Tong District,Ngau Tau Kok,"1/F, 183 Ngau Tau Kok Rd, Kwun Tong",$35,22.3215426,114.2163391,POINT Z (114.2163391 22.3215426 0),"Ngau Tau Kok Municipal Services Building, 183 Ngau Tau Kok Rd, Ngau Tau Kok, Hong Kong"
炳利飯店,Kwun Tong District,Ngau Tau Kok,觀塘勵業街3號,$42,22.3137482,114.2167809,POINT Z (114.2167809 22.3137482 0),"3 Lai Yip St, Hong Kong"
蛋撻王,Kwun Tong District,Ngau Tau Kok,牛頭角鴻圖道1號,$46,22.3145737,114.2187097,POINT Z (114.2187097 22.3145737 0),"1 Hung To Road, 1 Hung To Rd, Kwun Tong, Hong Kong"
裕德素食,Kwun Tong District,Ngau Tau Kok,牛頭角定富街26至30號,$46,22.3172533,114.2158884,POINT Z (114.2158884 22.3172533 0),"30 号, 26 Ting Fu St, Ngau Tau Kok, Hong Kong"
一田超市,Eastern District,North Point,北角渣華道123號,$32,22.2926716,114.2008874,POINT Z (114.2008874 22.2926716 0),"123 Java Rd, North Point, Hong Kong"
包點潮人,Eastern District,North Point,七姊妹道206-208號,$28,22.2907979,114.2077962,POINT Z (114.2077962 22.2907979 0),"Cheong Lee Building, 206-208 Tsat Tsz Mui Rd, Tsat Tsz Mui, Hong Kong"
四季小廚,Eastern District,North Point,健康東街23號B,,22.2914177,114.206853,POINT Z (114.206853 22.2914177 0),"23 Healthy St E, Tsat Tsz Mui, Hong Kong"
百佳超級廣場,Eastern District,North Point,北角英皇道500號,,22.2913428,114.2021832,POINT Z (114.2021832 22.2913428 0),"500 King's Rd, North Point, Hong Kong"
佳記美食,Eastern District,North Point,英皇道490號,$32,22.2912304,114.2015199,POINT Z (114.2015199 22.2912304 0),"490 King's Rd, North Point, Hong Kong"
岱民北角店,Eastern District,North Point,馬寶道46號地下,$25,22.2917928,114.2012828,POINT Z (114.2012828 22.2917928 0),"46 Marble Road, 46 Marble Rd, North Point, Hong Kong"
惠康超級市場,Eastern District,North Point,英皇道416-438號,$34,22.290674,114.199213,POINT Z (114.199213 22.290674 0),"416-438號 King's Rd, North Point, Hong Kong"
煮飯仔,Eastern District,North Point,馬寶道62-76,$28,22.2919664,114.2017461,POINT Z (114.2017461 22.2919664 0),"62 Marble Rd, North Point, Hong Kong"
超人燒鵝,Eastern District,North Point,英皇道482號,$32,22.2912777,114.201547,POINT Z (114.201547 22.2912777 0),"On Fai House, 482 King's Rd, North Point, Hong Kong"
韓味屋,Eastern District,North Point,北角丹拿道60號,$35,22.290645,114.2031514,POINT Z (114.2031514 22.290645 0),"Tanner Court, 60 Tanner Rd, North Point, Hong Kong"
玲瓏尚膳功房,Sha Tin District,Shek Mun,安群街3號,$39,22.38791931,114.208205,POINT Z (114.208205 22.38791931 0),"3 On Kwan St, Sha Tin, Hong Kong"
樂得軒,Sha Tin District,Shek Mun,沙田石門安群街1號,,22.3887091,114.208881,POINT Z (114.208881 22.3887091 0),"1 On Kwan St, Sha Tin, Hong Kong"
銘記美食 ,Tsuen Wan District,Shek Wai Kok,荃灣石圍角路,$36,22.37554477,114.1241757,POINT Z (114.1241757 22.37554477 0),"Shek Wai Kok Rd, Tsuen Wan, Hong Kong"
上邨 - 有米兩餸飯,Sham Shui Po District,Shek Kip Mei,深水埗白雲街白田商場,$30,22.33659,114.16696,POINT Z (114.16696 22.33659 0),"Pak Wan St, Pak Tin, Hong Kong"
仙竹林台式茶座,Sham Shui Po District,Shek Kip Mei,石硤尾南山邨南豐樓,$45,22.33281695,114.170903,POINT Z (114.170903 22.33281695 0),"Shek Kip Mei, Hong Kong"
合興美食,Sham Shui Po District,Shek Kip Mei,石硤尾偉智里1-3號,$28,22.3349835,114.1670192,POINT Z (114.1670192 22.3349835 0),"Pak Yuk Lau, 1 Wai Chi Ln, Shek Kip Mei, Hong Kong"
快靚正小廚,Sham Shui Po District,Shek Kip Mei,石硤尾偉智里1號,$28,22.3349835,114.1670192,POINT Z (114.1670192 22.3349835 0),"Pak Yuk Lau, 1 Wai Chi Ln, Shek Kip Mei, Hong Kong"
兩餸飯掂,Sham Shui Po District,Shek Kip Mei,南山邨南樂樓,$43,22.3327113,114.1709206,POINT Z (114.1709206 22.3327113 0),"Nam Shan Estate Nam Lok House, 111 Tai Hang Tung Rd, Hong Kong"
超人燒鵝,Kwai Tsing District,Shek Yam,石蔭路88號,$34,22.3697295,114.1395435,POINT Z (114.1395435 22.3697295 0),"88 Shek Yam Rd, Shek Yam, Hong Kong"
飯聚點小館,Kwai Tsing District,Shek Yam,和宜合道182-184,$36,22.3695698,114.1390292,POINT Z (114.1390292 22.3695698 0),"Hong Kong, Kwai Chung, Wo Yi Hop Rd, 182號184號地下"
太子小廚餐廳,Kwai Tsing District,Shek Lei,青山公路葵涌段432-436A1-B1鋪,$38,22.3665768,114.1353425,POINT Z (114.1353425 22.3665768 0),"432～436號 Castle Peak Rd - Kwai Chung, Kwai Chung, Hong Kong"
和豐飯堂,Kwai Tsing District,Shek Lei,葵涌打磚坪街58-76號,$44,22.3679366,114.1373771,POINT Z (114.1373771 22.3679366 0),"Well Fung Industrial Centre, 58-76號 Ta Chuen Ping St, Kwai Chung, Hong Kong"
珍珍美食,Kwai Tsing District,Shek Lei,葵涌圍乪街6號,$36,22.364908,114.138374,POINT Z (114.138374 22.364908 0),"Shek Lei Shopping Centre Phase 1, 6 Wai Kek St, Shek Lei, Hong Kong"
孖記廚房燒味皇,Kwun Tong District,On Tat,九龍觀塘安翠街3號,$33,22.32180614,114.235007,POINT Z (114.235007 22.32180614 0),"Lai Tat House On Tat Estate, 3號 On Chui St, Kwun Tong, Hong Kong"
戶戶餸,Yau Tsim Mong District,Tsim Sha Tsui,尖沙咀柯士甸路15B號,$30,22.3023876,114.1750774,POINT Z (114.1750774 22.3023876 0),"Carnival Mansion, 15B Austin Ave, Tsim Sha Tsui, Hong Kong"
密密食,Yau Tsim Mong District,Tsim Sha Tsui,加連威老道41號B,$30,22.3002456,114.1747126,POINT Z (114.1747126 22.3002456 0),"b, Hing Ming Building, 41A Granville Rd, Tsim Sha Tsui, Hong Kong"
密密食,Yau Tsim Mong District,Tsim Sha Tsui,尖沙咀樂道19號,$30,22.2972036,114.1714547,POINT Z (114.1714547 22.2972036 0),"Anson House, 13-19A Lock Rd, Tsim Sha Tsui, Hong Kong"
密密煮,Yau Tsim Mong District,Tsim Sha Tsui,尖沙咀柯士甸路15A號,$30,22.3022313,114.1751006,POINT Z (114.1751006 22.3022313 0),"Austin Mansions, 15A Austin Ave, Tsim Sha Tsui, Hong Kong"
岱民西貢店,Sai Kung District,Sai Kung,西貢海傍廣場2號地下,$25,22.3812122,114.2732961,POINT Z (114.2732961 22.3812122 0),"Kam Po Court, 2 Sai Kung Hoi Pong Square, Sai Kung, Hong Kong"
佳記美食,Central and Western District,Sai Wan,西環皇后大道西484號新安大樓地下M號舖,$36,22.2858022,114.1354354,POINT Z (114.1354354 22.2858022 0),"m, Sun On Building, 484-496 Queen's Rd W, Sai Wan, Hong Kong"
岱民石塘咀店,Central and Western District,Sai Wan,皇后大道西425G號,$25,22.2860328,114.136259,POINT Z (114.136259 22.2860328 0),"425G Queen's Rd W, Sai Wan, Hong Kong"
岱民西環店,Central and Western District,Sai Wan,德輔道西220號,$25,22.2878196,114.1425408,POINT Z (114.1425408 22.2878196 0),"220 Des Voeux Rd W, Sai Wan, Hong Kong"
海悅華宴,Central and Western District,Sai Wan,石塘咀山道16號,$38,22.286534,114.135075,POINT Z (114.135075 22.286534 0),"4-16 Hill Rd, Shek Tong Tsui, Hong Kong"
添飯餸,Central and Western District,Sai Wan,德輔道西366號,$30,22.28706321,114.1377726,POINT Z (114.1377726 22.28706321 0),"352-366 Des Voeux Rd W, Sai Wan, Hong Kong"
興旺廚房,Central and Western District,Sai Wan,西環皇后大道西302號,$36,22.2868049,114.1420137,POINT Z (114.1420137 22.2868049 0),"302 Queen's Rd W, Sai Wan, Hong Kong"
興華小廚,Central and Western District,Sai Wan,正街26號,$36,22.2874542,114.142318,POINT Z (114.142318 22.2874542 0),"26 Centre St, Sai Wan, Hong Kong"
大廚家餸,Eastern District,Sai Wan Ho,筲箕灣筲箕灣道33-55號,$30,22.2833435,114.2212737,POINT Z (114.2212737 22.2833435 0),"Lai Wan Building, 33-55 Shau Kei Wan Rd, Sai Wan Ho, Hong Kong"
良記美食,Eastern District,Sai Wan Ho,西灣河筲箕灣道57-87號,$35,22.2828742,114.2220997,POINT Z (114.2220997 22.2828742 0),"Tai On Building, 57-87 Shau Kei Wan Rd, Sai Wan Ho, Hong Kong"
添飯餸,Eastern District,Sai Wan Ho,成安街33號,$30,22.2814331,114.2209439,POINT Z (114.2209439 22.2814331 0),"33 Shing On St, Sai Wan Ho, Hong Kong"
滋味屋,Eastern District,Sai Wan Ho,西灣河筲箕灣道57-87號,$40,22.2828742,114.2220997,POINT Z (114.2220997 22.2828742 0),"Tai On Building, 57-87 Shau Kei Wan Rd, Sai Wan Ho, Hong Kong"
一龍蝦兩餸王,Yau Tsim Mong District,Jordan,文蔚街7號,$30,22.3076528,114.1668131,POINT Z (114.1668131 22.3076528 0),"7 Man Wai St, Ferry Point, Hong Kong"
三餸一湯,Yau Tsim Mong District,Jordan,佐敦寶靈街8號,$30,22.3042127,114.1708277,POINT Z (114.1708277 22.3042127 0),"Bowring Building, 8-20 Bowring St, Yau Ma Tei, Hong Kong"
羽澂午餐店,Yau Tsim Mong District,Jordan,寶靈街42-46號,$34,22.3041736,114.169511,POINT Z (114.169511 22.3041736 0),"42 Bowring St, Yau Ma Tei, Hong Kong"
佳記美食,Yau Tsim Mong District,Jordan,上海街88號,$30,22.3050315,114.1692586,POINT Z (114.1692586 22.3050315 0),"88 Shanghai St, Yau Ma Tei, Hong Kong"
岱民佐敦店,Yau Tsim Mong District,Jordan,文苑街9號,$25,22.3073572,114.1668922,POINT Z (114.1668922 22.3073572 0),"9a Man Yuen St, Yau Ma Tei, Hong Kong"
岱民廟街店,Yau Tsim Mong District,Jordan,佐敦廟街184號,$25,22.306862,114.1702007,POINT Z (114.1702007 22.306862 0),"Agatha House, 174-184A Temple St, Yau Ma Tei, Hong Kong"
金龍福食,Yau Tsim Mong District,Jordan,佐敦寶靈街17號,$43,22.3044844,114.1682732,POINT Z (114.1682732 22.3044844 0),"Kwun Chung Municipal Services Building, 17 Bowring St, Yau Ma Tei, Hong Kong"
食得好,Yau Tsim Mong District,Jordan,佐敦吳松街131～137號,$32,22.30507,114.17003,POINT Z (114.17003 22.30507 0),"137 号, 131 Woosung St, Yau Ma Tei, Hong Kong"
盛世平民小廚,Yau Tsim Mong District,Jordan,上海街61-67號,$35,22.3046617,114.1689467,POINT Z (114.1689467 22.3046617 0),"Ka Sing Building, 61-67 Shanghai St, Yau Ma Tei, Hong Kong"
聚友會,Yau Tsim Mong District,Jordan,佐敦德興街9-10號,$38,22.3047486,114.1724068,POINT Z (114.1724068 22.3047486 0),"Pollock Building, 9-10 Tak Hing St, Yau Ma Tei, Hong Kong"
權發小廚,Yau Tsim Mong District,Jordan,彌敦道317號,$40,22.3063194,114.1712922,POINT Z (114.1712922 22.3063194 0),"Buckingham Building, 317-321 Nathan Rd, Yau Ma Tei, Hong Kong"
岱民愛民店,Kowloon City District,Ho Man Tin,何文田忠孝街,$25,22.3131991,114.1785375,POINT Z (114.1785375 22.3131991 0),"Chung Hau St, Ho Man Tin, Hong Kong"
林興,Kowloon City District,Ho Man Tin,何文田佛光街80,$33,22.3161822,114.1816099,POINT Z (114.1816099 22.3161822 0),"80 Fat Kwong St, Quarry Hill, Hong Kong"
茶皇殿,Kowloon City District,Ho Man Tin,九龍何文田佛光街80號,$42,22.3162364,114.1818117,POINT Z (114.1818117 22.3162364 0),"80 Fat Kwong St, Quarry Hill, Hong Kong"
岱民利東店,Southern District,Lei Tung,鴨脷洲利東邨道5號,$25,22.2409897,114.1559524,POINT Z (114.1559524 22.2409897 0),"5 Lei Tung Estate Rd, Ap Lei Chau, Hong Kong"
加餸堂,Sai Kung District,Hang Hau,將軍澳培成里10號,$29,22.316606,114.2686759,POINT Z (114.2686759 22.316606 0),"10 Pui Shing Ln, Hang Hau, Hong Kong"
家餸小廚,Sai Kung District,Hang Hau,將軍澳常寧路2號,$32,22.3172083,114.2658933,POINT Z (114.2658933 22.3172083 0),"2 Sheung Ning Rd, Tseung Kwan O, Hong Kong"
德利美食,Eastern District,Heng Fa Chuen,,$28,22.278031,114.238925,POINT Z (114.238925 22.278031 0),
一田超市,Sha Tin District,Sha Tin,沙田沙田正街2-8號,$36,22.3791786,114.1875986,POINT Z (114.1875986 22.3791786 0),"New Town Plaza Phase 3 Block 2 Ivy Court, 2-8 Sha Tin Centre St, Sha Tin, Hong Kong"
加餸堂,Sha Tin District,Sha Tin,大圍盛田街1號,$27,22.3731574,114.1860381,POINT Z (114.1860381 22.3731574 0),"1 Shing Tin St, Tai Wai, Hong Kong"
加餸堂,Sha Tin District,Sha Tin,沙田橫壆街1號,$32,22.3835881,114.1901408,POINT Z (114.1901408 22.3835881 0),"1 Wang Pok St, Sha Tin, Hong Kong"
那萊泰麵,Sha Tin District,Sha Tin,沙田德厚街3號,$28,22.3880932,114.1945084,POINT Z (114.1945084 22.3880932 0),"Wo Che Estate Hau Wo House, 3 Tak Hau St, Sha Tin, Hong Kong"
岱民乙明店,Sha Tin District,Sha Tin,沙田乙明邨街3號,$25,22.3764367,114.1910772,POINT Z (114.1910772 22.3764367 0),"Jat Min Chuen Ming Shun Lau, 3 Jat Min Chuen St, Sha Tin, Hong Kong"
岱民瀝源店,Sha Tin District,Sha Tin,沙田瀝源街6號,$25,22.384607,114.191214,POINT Z (114.191214 22.384607 0),"6 Lek Yuen St, Sha Tin, Hong Kong"
金沙角冰室,Sha Tin District,Sha Tin,沙角邨熟食中心,$35,22.3774402,114.1944484,POINT Z (114.1944484 22.3774402 0),
美味小廚,Sha Tin District,Sha Tin,沙田小瀝源路68號,$28,22.3815054,114.2154229,POINT Z (114.2154229 22.3815054 0),"68 Siu Lek Yuen Road, Sha Tin, Hong Kong"
桂林米線,Sha Tin District,Sha Tin,沙田小瀝源路68號,$30,22.38173945,114.2155325,POINT Z (114.2155325 22.38173945 0),"68 Siu Lek Yuen Road, Sha Tin, Hong Kong"
素回家,Sha Tin District,Sha Tin,沙田牛皮沙街2號,,22.3815215,114.2059153,POINT Z (114.2059153 22.3815215 0),"2號 Ngau Pei Sha St, Siu Lek Yuen, Hong Kong"
新廣發,Sha Tin District,Sha Tin,沙田沙角街博康邨博裕樓,$27,22.3758319,114.194212,POINT Z (114.194212 22.3758319 0),"Pok Hong Estate Pok Yue House, 6 Sha Kok St, Sha Tin, Hong Kong"
龍記廚房,Sha Tin District,Sha Tin,新界沙田沙角街5號,$30,22.3770026,114.1940123,POINT Z (114.1940123 22.3770026 0),"5 Sha Kok St, Sha Tin, Hong Kong"
I Tasty 愛味道,Sha Tin District,Sha Tin,科技大道西17號,$58,22.4267787,114.2087402,POINT Z (114.2087402 22.4267787 0),
和平美食,Kwun Tong District,Sau Mau Ping,九龍觀塘秀茂坪秀明道101號,$28,22.3200782,114.2321305,POINT Z (114.2321305 22.3200782 0),"Sau Mau Ping Estate Sau Wo House, 101 Sau Ming Rd, Sau Mau Ping, Hong Kong"
茶皇殿,Kwun Tong District,Sau Mau Ping,觀塘秀茂坪安秀道,$32,22.32087,114.23376,POINT Z (114.23376 22.32087 0),"On Sau Rd, Sau Mau Ping, Hong Kong"
人人有飯開,Yau Tsim Mong District,Mong Kok,旺角旺角道18-20A號,$32,22.3212028,114.1698059,POINT Z (114.1698059 22.3212028 0),"Chip Lee Building, 18-20A Mong Kok Rd, Mong Kok, Hong Kong"
山頂燒鵝,Yau Tsim Mong District,Mong Kok,弼街53號,$30,22.3223587,114.1700955,POINT Z (114.1700955 22.3223587 0),"53號 Bute St, Mong Kok, Hong Kong"
包點皇者,Yau Tsim Mong District,Mong Kok,旺角新填地街405號地下,$28,22.3182286,114.1676807,POINT Z (114.1676807 22.3182286 0),"405-417 Reclamation Street, 405-417 Reclamation St, Mong Kok, Hong Kong"
好味燒臘兩餸飯,Yau Tsim Mong District,Mong Kok,通菜街33號,$40,22.3174468,114.1708259,POINT Z (114.1708259 22.3174468 0),"33 Tung Choi St, Mong Kok, Hong Kong"
岱民旺角店,Yau Tsim Mong District,Mong Kok,通菜街20號,$28,22.3173972,114.1711296,POINT Z (114.1711296 22.3173972 0),"Tat Ming Building, 20-22A Tung Choi St, Mong Kok, Hong Kong"
林興飯店,Yau Tsim Mong District,Mong Kok,旺角花園街130號,$28,22.320744,114.1710228,POINT Z (114.1710228 22.320744 0),"130B Fa Yuen St, Mong Kok, Hong Kong"
金華冰廳,Yau Tsim Mong District,Mong Kok,旺角弼街45-47號,$50,22.3223204,114.1697559,POINT Z (114.1697559 22.3223204 0),"45 Bute St, Mong Kok, Hong Kong"
喜洋洋美食,Yau Tsim Mong District,Mong Kok,上海街494號,$35,22.316566,114.168793,POINT Z (114.168793 22.316566 0),"494 Shanghai St, Mong Kok, Hong Kong"
喜聚火鍋雞煲專門店,Yau Tsim Mong District,Mong Kok,旺角豉油街126號,$34,22.3169693,114.1734286,POINT Z (114.1734286 22.3169693 0),"Mainway Court, 126-128 Soy St, Mong Kok, Hong Kong"
富膳飯店,Yau Tsim Mong District,Mong Kok,九龍海庭道8號,$35,22.31527312,114.1642304,POINT Z (114.1642304 22.31527312 0),"8 Hoi Ting Rd, Charming Garden, Hong Kong"
廣潤美食,Yau Tsim Mong District,Mong Kok,旺角亞皆老街64-70號,$28,22.3194749,114.1715012,POINT Z (114.1715012 22.3194749 0),"64-70 Argyle St, Mong Kok, Hong Kong"
廣潤美食,Yau Tsim Mong District,Mong Kok,旺角亞皆老街15號,$28,22.3191821,114.1672747,POINT Z (114.1672747 22.3191821 0),"Kwong Ah Building, 15-17 Argyle St, Mong Kok, Hong Kong"
十足風味,Islands District,Tung Chung,東涌海濱路8號,$34,22.292635,113.942844,POINT Z (113.942844 22.292635 0),"8 Tung Chung Waterfront Rd, Seaview Crescent, Hong Kong"
六十年代,Islands District,Tung Chung,東涌逸東街8號,$36,22.2806646,113.9362653,POINT Z (113.9362653 22.2806646 0),"8 Yat Tung St, Tung Chung, Hong Kong"
德興小廚,Islands District,Tung Chung,東涌怡東路8號,$38,22.29544073,113.9468209,POINT Z (113.9468209 22.29544073 0),"8 Yi Tung Rd, Tung Chung, Hong Kong"
Taste,Islands District,Tung Chung,東涌達東路20號,$35,22.289733,113.9412938,POINT Z (113.9412938 22.289733 0),"Citygate Outlets, 20 Tat Tung Rd, Tung Chung, Hong Kong"
三洋美食,Yau Tsim Mong District,Yau Ma Tei,窩打老道13號,$34,22.313052,114.1702167,POINT Z (114.1702167 22.313052 0),"13 Waterloo Rd, Yau Ma Tei, Hong Kong"
星廚,Yau Tsim Mong District,Yau Ma Tei,油麻地鴉打街58號,$38,22.3116341,114.170282,POINT Z (114.170282 22.3116341 0),"Arts Mansion, 46-58 Arthur St, Yau Ma Tei, Hong Kong"
富膳飯店,Yau Tsim Mong District,Yau Ma Tei,油麻地彌敦道521號,$36,22.3126094,114.1705258,POINT Z (114.1705258 22.3126094 0),"521號 Nathan Rd, Mong Kok, Hong Kong"
超人燒鵝,Yau Tsim Mong District,Yau Ma Tei,油麻地彌敦道479A號,$35,22.31215,114.17066,POINT Z (114.17066 22.31215 0),"479 Nathan Rd, Yau Ma Tei, Hong Kong"
雄記小廚,Yau Tsim Mong District,Yau Ma Tei,砵蘭街73號,$36,22.3140819,114.1696201,POINT Z (114.1696201 22.3140819 0),"65-73 Portland Street, 65-73 Portland St, Mong Kok, Hong Kong"
獅子飯店,Yau Tsim Mong District,Yau Ma Tei,油麻地廣東道854號,$30,22.314012,114.168364,POINT Z (114.168364 22.314012 0),"854 Canton Rd, Mong Kok, Hong Kong"
權發小廚,Yau Tsim Mong District,Yau Ma Tei,彌敦道513號,$40,22.3125222,114.1705258,POINT Z (114.1705258 22.3125222 0),"Tai Wo Commercial Building, 513 Nathan Rd, Yau Ma Tei, Hong Kong"
鑊氣三餸飯,Yau Tsim Mong District,Yau Ma Tei,油麻地咸美頓街14號,$25,22.3143246,114.1698561,POINT Z (114.1698561 22.3143246 0),"14 Hamilton St, Mong Kok, Hong Kong"
日嚐,Kwun Tong District,Yau Tong,油塘鯉魚門道80號,$34,22.2964001,114.2394189,POINT Z (114.2394189 22.2964001 0),"80 Lei Yue Mun Rd, Yau Tong, Hong Kong"
茶皇殿,Kwun Tong District,Yau Tong,油塘高超道38號,$32,22.29603,114.2386,POINT Z (114.2386 22.29603 0),"38 Ko Chiu Rd, Yau Tong, Hong Kong"
富金軒,Kwun Tong District,Yau Tong,油塘油塘道9號,$33,22.301285,114.236229,POINT Z (114.236229 22.301285 0),"9 Yau Tong Rd, Yau Tong, Hong Kong"
港味,Kwun Tong District,Yau Tong,油塘高超道38號,$35,22.29684059,114.2385396,POINT Z (114.2385396 22.29684059 0),"38 Ko Chiu Rd, Yau Tong, Hong Kong"
潘記飯檔,Kwun Tong District,Yau Tong,油塘東源街10號,$44,22.2931055,114.2343131,POINT Z (114.2343131 22.2931055 0),"10 Tung Yuen St, Yau Tong, Hong Kong"
美樂小食,Central and Western District,Admiralty,金鐘夏慤道18號,$46,22.2795729,114.1649935,POINT Z (114.1649935 22.2795729 0),"18 Harcourt Rd, Central, Hong Kong"
龍門快餐,Central and Western District,Admiralty,金鐘夏慤道18號,$39,22.2792728,114.1650221,POINT Z (114.1650221 22.2792728 0),"18 Harcourt Rd, Central, Hong Kong"
Lumi Deli,Central and Western District,Admiralty,金鐘道88號,$75,22.277509,114.166341,POINT Z (114.166341 22.277509 0),"88 Queensway, Admiralty, Hong Kong"
Simplylife Foodplace ,Central and Western District,Admiralty,金鐘花園道3號,$70,22.2783678,114.160862,POINT Z (114.160862 22.2783678 0),"3 Garden Rd, Admiralty, Hong Kong"
太子海鮮菜館,Sham Shui Po District,Cheung Sha Wan,長沙灣元州街481-483號,$38,22.3397327,114.153544,POINT Z (114.153544 22.3397327 0),"481 Un Chau St, Cheung Sha Wan, Hong Kong"
民旺,Sham Shui Po District,Cheung Sha Wan,青山道382號,$28,22.3396382,114.1550594,POINT Z (114.1550594 22.3396382 0),"380-382 Castle Peak Road, 380-382 Castle Peak Rd, So Uk, Hong Kong"
永利美食,Sham Shui Po District,Cheung Sha Wan,長沙灣,$30,22.3297917,114.1509204,POINT Z (114.1509204 22.3297917 0),"Cheung Sha Wan, Hong Kong"
任點小廚,Sham Shui Po District,Cheung Sha Wan,長沙灣青山道261號,$31,22.337166,114.1578542,POINT Z (114.1578542 22.337166 0),"261-293 Castle Peak Road, Cheung Sha Wan, Hong Kong"
好滿足家常菜,Sham Shui Po District,Cheung Sha Wan,九龍元州街414號,$35,22.338735,114.155279,POINT Z (114.155279 22.338735 0),"414 Un Chau St, Cheung Sha Wan, Hong Kong"
佳記美食,Sham Shui Po District,Cheung Sha Wan,青山道234號,$32,22.3370758,114.1583286,POINT Z (114.1583286 22.3370758 0),"234 Castle Peak Rd, Cheung Sha Wan, Hong Kong"
金發美食,Sham Shui Po District,Cheung Sha Wan,長發街28號,$30,22.3391635,114.1569637,POINT Z (114.1569637 22.3391635 0),"On Fat Building, 28 Cheung Fat St, Lei Cheng Uk, Hong Kong"
耆樂食堂,Sham Shui Po District,Cheung Sha Wan,長沙灣兼善里15號,,22.3394121,114.1527834,POINT Z (114.1527834 22.3394121 0),"15 Kim Shin Ln, Cheung Sha Wan, Hong Kong"
喜兆年酒家,Sham Shui Po District,Cheung Sha Wan,長沙灣深旺道100號,$33,22.33261835,114.1467472,POINT Z (114.1467472 22.33261835 0),"100 Sham Mong Rd, Cheung Sha Wan, Hong Kong"
超人燒鵝,Sham Shui Po District,Cheung Sha Wan,長沙灣青山道349號,$28,22.3385252,114.1560348,POINT Z (114.1560348 22.3385252 0),"349-351 Castle Peak Road, 349-351 Castle Peak Rd, Cheung Sha Wan, Hong Kong"
滙發茶餐廳,Sham Shui Po District,Cheung Sha Wan,元州街162-188號,$45,22.3350001,114.1605063,POINT Z (114.1605063 22.3350001 0),"162 Un Chau St, Un Chau, Hong Kong"
葉公館,Sham Shui Po District,Cheung Sha Wan,長沙灣青山道255號,$25,22.3369277,114.1580088,POINT Z (114.1580088 22.3369277 0),"Hand Fair Court, 255 Castle Peak Rd, Cheung Sha Wan, Hong Kong"
鑊氣三餸飯,Sham Shui Po District,Cheung Sha Wan,長沙灣深旺道,$32,22.32971678,114.150674,POINT Z (114.150674 22.32971678 0),"Sham Mong Rd, Cheung Sha Wan, Hong Kong"
金冠茶樓,Islands District,Cheung Chau,長洲海傍街32號,$40,22.20845311,114.0288466,POINT Z (114.0288466 22.20845311 0),"32 Praya St, Cheung Chau, Hong Kong"
林記燒臘餐廳,Kwai Tsing District,Tsing Yi,青衣楓樹窩路,$33,22.3555144,114.1022405,POINT Z (114.1022405 22.3555144 0),"Fung Shue Wo Rd, Tsing Yi, Hong Kong"
榮昌小廚,Kwai Tsing District,Tsing Yi,青衣担杆山路6號,$34,22.3622626,114.1036172,POINT Z (114.1036172 22.3622626 0),"6 Tam Kon Shan Rd, Tsing Yi, Hong Kong"
榮康小食,Kwai Tsing District,Tsing Yi,青衣青康路2號,$30,22.34998,114.0996,POINT Z (114.0996 22.34998 0),"Block A, Ching Chun Court, 2B Ching Hong Rd, Tsing Yi, Hong Kong"
迎好打冷小廚,Yuen Long District,Hung Shui Kiu,洪水橋洪水橋大街1號,,22.4327608,113.99599,POINT Z (113.99599 22.4327608 0),"1 Hung Shui Kiu Main St, Hung Shui Kiu, Hong Kong"
圓師奶,Yuen Long District,Hung Shui Kiu,洪水橋青山公路-洪水橋段洪福樓,$38,22.43299,113.99745,POINT Z (113.99745 22.43299 0),"Hung Fook Building, Castle Peak Rd - Hung Shui Kiu, Hung Shui Kiu, Hong Kong"
新星廚房,Yuen Long District,Hung Shui Kiu,元朗洪元路1號,$35,22.436982,113.9985517,POINT Z (113.9985517 22.436982 0),"1 Hung Yuen Rd, Hung Shui Kiu, Hong Kong"
德福海鮮酒家,Yuen Long District,Hung Shui Kiu,洪堤路8號,$38,22.4340084,113.9966495,POINT Z (113.9966495 22.4340084 0),"8 Hung Tai Rd, Hung Shui Kiu, Hong Kong"
岱民北角2店,Eastern District,Fortress Hill,電氣道302號,$25,22.290251,114.194647,POINT Z (114.194647 22.290251 0),"302號 Electric Rd, North Point, Hong Kong"
密密煮,Eastern District,Fortress Hill,蜆殼街4號,$30,22.286978,114.1923543,POINT Z (114.1923543 22.286978 0),"Universal Commercial House, 4 Shell St, Causeway Bay, Hong Kong"
超人美食,Eastern District,Fortress Hill,北角英皇道165～175號,$36,22.2888655,114.1936547,POINT Z (114.1936547 22.2888655 0),"175 号, 165 King's Rd, North Point, Hong Kong"
順景車仔麵,Eastern District,Fortress Hill,電氣道160號,$34,22.2871993,114.1919591,POINT Z (114.1919591 22.2871993 0),"Merlin Garden, 160 Electric Rd, Causeway Bay, Hong Kong"
大發餐廳,Kowloon City District,Hung Hom,民裕街 27號,$28,22.3091356,114.1883126,POINT Z (114.1883126 22.3091356 0),"27 Man Yue St, Tai Wan, Hong Kong"
仨餸小廚,Kowloon City District,Hung Hom,紅磡民泰街40號,$28,22.3061716,114.1886881,POINT Z (114.1886881 22.3061716 0),"Whampoa Estate On Wah Building, 40 Man Tai St, Hung Hom, Hong Kong"
台日便當,Kowloon City District,Hung Hom,紅磡民裕街9號,$30,22.3092123,114.1880086,POINT Z (114.1880086 22.3092123 0),"9 Man Yue St, Hok Yuen, Hong Kong"
民旺(紅磡)店,Kowloon City District,Hung Hom,九龍紅磡湖光街1-7號,$25,22.30583,114.18604,POINT Z (114.18604 22.30583 0),"United Building Lung To Court, 1 Wu Kwong St, Hung Hom, Hong Kong"
同樂素食,Kowloon City District,Hung Hom,都會道6~10號,,22.3027668,114.1830425,POINT Z (114.1830425 22.3027668 0),"10 号, The Metropolis Fortune Metropolis, 6 Metropolis Dr, Hung Hom Bay, Hong Kong"
添飯餸,Kowloon City District,Hung Hom,馬頭圍道23-35H號,$30,22.3092634,114.1880119,POINT Z (114.1880119 22.3092634 0),"Loong King Mansion, 23-35H Ma Tau Wai Rd, Hok Yuen, Hong Kong"
盛意燒鵝,Kowloon City District,Hung Hom,紅磡差館里7號,$28,22.3071762,114.1867348,POINT Z (114.1867348 22.3071762 0),"7 Station Lane, 7 Station Ln, Hung Hom, Hong Kong"
超人燒鵝,Kowloon City District,Hung Hom,湖光街1-7號,$30,22.30560259,114.1863856,POINT Z (114.1863856 22.30560259 0),"United Building Lung To Court, 1 Wu Kwong St, Hung Hom, Hong Kong"
錦記粥粉麵飯,Kowloon City District,Hung Hom,紅磡老龍坑街13-15號,,22.3077971,114.183499,POINT Z (114.183499 22.3077971 0),"13-15 Lo Lung Hang St, Hung Hom, Hong Kong"
寶源美食,Kowloon City District,Hung Hom,湖光街7號,$26,22.30589,114.18591,POINT Z (114.18591 22.30589 0),"United Building Hung Wen Court, 7 Wu Kwong St, Hung Hom, Hong Kong"
蘭姐美食館,Kowloon City District,Hung Hom,紅磡崇潔街33號,$36,22.3116281,114.1888178,POINT Z (114.1888178 22.3116281 0),"33 Sung Kit St, Hok Yuen, Hong Kong"
Aeon,Kowloon City District,Hung Hom,紅磡黃埔花園第12期,$37,22.306041,114.191194,POINT Z (114.191194 22.306041 0),"Whampoa Garden Site 12 Block 9, 3 Tak Hong St, Whampoa Garden, Hong Kong"
128 特色小食店,Sham Shui Po District,Mei Foo,百老匯街15號,$20,22.3370849,114.1380597,POINT Z (114.1380597 22.3370849 0),"Mei Foo Sun Chuen Stage 1 - 15-17 Broadway, 15-17 Broadway, Lai Chi Kok, Hong Kong"
人人有飯開,Sham Shui Po District,Mei Foo,美孚新邨百老匯街61號,$32,22.3361375,114.140475,POINT Z (114.140475 22.3361375 0),"Mei Foo Sun Chuen Stage 3 - 61-63 Broadway, 61-63 Broadway, Lai Chi Kok, Hong Kong"
餸潮,Sham Shui Po District,Mei Foo,百老匯街,$30,22.335967,114.141406,POINT Z (114.141406 22.335967 0),"Broadway, Lai Chi Kok, Hong Kong"
百佳超級市場,Southern District,Aberdeen,香港仔南寧街 13-23 號,$30,22.2487869,114.1538679,POINT Z (114.1538679 22.2487869 0),"13 Nam Ning St, Aberdeen, Hong Kong"
超人燒鵝,Southern District,Aberdeen,香港仔東勝道7號,$35,22.2483839,114.1551695,POINT Z (114.1551695 22.2483839 0),"7 Tung Sing Rd, Aberdeen, Hong Kong"
岱民柴灣店,Eastern District,Chai Wan,柴灣柴灣道345號,$30,22.2644165,114.2404317,POINT Z (114.2404317 22.2644165 0),"345 Chai Wan Rd, Chai Wan, Hong Kong"
阿哥廚房,Eastern District,Chai Wan,柴灣怡順街1-3號,$38,22.264512,114.239565,POINT Z (114.239565 22.264512 0),"1 Yee Shun St, Chai Wan, Hong Kong"
青越亭,Eastern District,Chai Wan,吉勝街2號,$32,22.2648243,114.2364957,POINT Z (114.2364957 22.2648243 0),"Chai Wan Factory Estate, 2 Kut Shing St, Chai Wan, Hong Kong"
開心小廚坊,Eastern District,Chai Wan,柴灣怡順街1號,$38,22.26455,114.23962,POINT Z (114.23962 22.26455 0),"1 Yee Shun St, Chai Wan, Hong Kong"
翠灣漁港,Eastern District,Chai Wan,柴灣柴灣道333號,$35,22.2637282,114.2382843,POINT Z (114.2382843 22.2637282 0),"333 Chai Wan Rd, Chai Wan, Hong Kong"
賢哥食堂,Eastern District,Chai Wan,柴灣吉勝街10號,,22.264688,114.2354885,POINT Z (114.2354885 22.264688 0),"10 Kut Shing St, Chai Wan, Hong Kong"
民旺(祖堯店),Kwai Tsing District,Cho Yiu,,$28,22.3458333,114.1283333,POINT Z (114.1283333 22.3458333 0),
江記粉麵 - 有米兩餸飯,North District,Fanling,新界粉嶺新運路38號,$30,22.4933516,114.1404806,POINT Z (114.1404806 22.4933516 0),"38 San Wan Rd, Fanling, Hong Kong"
百佳超級市場,North District,Fanling,粉嶺車站路18號,$30,22.4920736,114.1396637,POINT Z (114.1396637 22.4920736 0),"18 Fanling Station Rd, Fanling, Hong Kong"
岱民粉嶺店,North District,Fanling,粉嶺華明路22號,$25,22.4828351,114.1389536,POINT Z (114.1389536 22.4828351 0),"22 Wah Ming Rd, Fanling, Hong Kong"
岱民華明店,North District,Fanling,粉嶺華明路21號,$25,22.48413671,114.1409368,POINT Z (114.1409368 22.48413671 0),"21 Wah Ming Rd, Fanling, Hong Kong"
林記港美食,North District,Fanling,粉嶺和泰街12號,$35,22.4992991,114.142039,POINT Z (114.142039 22.4992991 0),"12 Wo Tai St, Fanling, Hong Kong"
金瓏小廚,North District,Fanling,粉嶺聯和道57-63號,$35,22.498764,114.1436335,POINT Z (114.1436335 22.498764 0),"The Cornwall, 57-63 Luen Wo Rd, Fanling, Hong Kong"
炫品食坊,North District,Fanling,粉嶺華明路21號,$29,22.48386333,114.1413617,POINT Z (114.1413617 22.48386333 0),"21 Wah Ming Rd, Fanling, Hong Kong"
泰興食坊,North District,Fanling,粉嶺華明路21號,$29,22.48421382,114.1407851,POINT Z (114.1407851 22.48421382 0),"21 Wah Ming Rd, Fanling, Hong Kong"
海港酒樓,North District,Fanling,和滿街8號,$29,22.5007348,114.1442104,POINT Z (114.1442104 22.5007348 0),"8 Wo Mun St, Fanling, Hong Kong"
華心味廚,North District,Fanling,一鳴路18號,$30,22.4867809,114.1421631,POINT Z (114.1421631 22.4867809 0),"18 Yat Ming Rd, Fanling, Hong Kong"
德利美食,North District,Fanling,祥華邨,$28,22.4928965,114.1415218,POINT Z (114.1415218 22.4928965 0),"San Wan Rd, Fanling, Hong Kong"
北極星,Sham Shui Po District,Lai Chi Kok,青山道690號,$36,22.338111,114.146601,POINT Z (114.146601 22.338111 0),"Kaming Factory Building, 688-690 Castle Peak Rd, Cheung Sha Wan, Hong Kong"
吉祥食坊,Sham Shui Po District,Lai Chi Kok,醫局西街1033號,$38,22.3384519,114.1472331,POINT Z (114.1472331 22.3384519 0),"Yuen Shing Industrial Building, 1033 Yee Kuk W St, Cheung Sha Wan, Hong Kong"
亮仔食堂,Sham Shui Po District,Lai Chi Kok,長沙灣長沙灣道638號,$38,22.339082,114.1512615,POINT Z (114.1512615 22.339082 0),"Charming Garden, 638 Cheung Sha Wan Rd, Cheung Sha Wan, Hong Kong"
超人燒鵝,Sham Shui Po District,Lai Chi Kok,元州街501號,$32,22.33992029,114.1531604,POINT Z (114.1531604 22.33992029 0),"Mei Kei Mansion, 501 Un Chau St, Cheung Sha Wan, Hong Kong"
新旺快餐,Sham Shui Po District,Lai Chi Kok,長沙灣長順街15號,$36,22.3360897,114.1475583,POINT Z (114.1475583 22.3360897 0),"Leroy Plaza, 15 Cheung Shun St, Cheung Sha Wan, Hong Kong"
Aeon,Sham Shui Po District,Lai Chi Kok,九龍深盛路8號,$37,22.3326254,114.1488787,POINT Z (114.1488787 22.3326254 0),"8 Sham Shing Rd, Cheung Sha Wan, Hong Kong"
日嚐 ,Tsuen Wan District,Tsuen Wan,荃灣蕙荃路22-66號,$43,22.3734673,114.1194336,POINT Z (114.1194336 22.3734673 0),"22-66 Wai Tsuen Rd, Tsuen Wan, Hong Kong"
包點超人,Tsuen Wan District,Tsuen Wan,海壩街148號,$32,22.37089,114.1173,POINT Z (114.1173 22.37089 0),"148 Hoi Pa St, Tsuen Wan, Hong Kong"
本灣水產,Tsuen Wan District,Tsuen Wan,荃灣青山公路荃灣段338號,$32,22.3742517,114.1149319,POINT Z (114.1149319 22.3742517 0),"338 Castle Peak Rd - Tsuen Wan, Tsuen Wan, Hong Kong"
吳章記,Tsuen Wan District,Tsuen Wan,柴灣角柴灣角街4A號,,22.37448047,114.1056307,POINT Z (114.1056307 22.37448047 0),"Chai Wan Kok Cooked Food Market, 4A Chai Wan Kok St, Chai Wan Kok, Hong Kong"
李奧厨房,Tsuen Wan District,Tsuen Wan,眾安街85號,$36,22.3690927,114.1162504,POINT Z (114.1162504 22.3690927 0),"85 Chung On St, Tsuen Wan, Hong Kong"
佳記美食,Tsuen Wan District,Tsuen Wan,眾安街79號,$36,22.3692187,114.1163014,POINT Z (114.1163014 22.3692187 0),"79 Chung On St, Tsuen Wan, Hong Kong"
食神廚房,Tsuen Wan District,Tsuen Wan,荃灣區青山公路荃灣段144-172號,$30,22.372059,114.119444,POINT Z (114.119444 22.372059 0),"Tsuen Fung Centre, 144-172 Castle Peak Rd - Tsuen Wan, Tsuen Wan, Hong Kong"
桂香燒味茶餐廳,Tsuen Wan District,Tsuen Wan,河背街61號,$36,22.3686,114.1155,POINT Z (114.1155 22.3686 0),"61 Ho Pui St, Tsuen Wan, Hong Kong"
泰式海南雞 ,Tsuen Wan District,Tsuen Wan,荃灣曹公坊14-36號,$35,22.3735955,114.1118389,POINT Z (114.1118389 22.3735955 0),"Cheung Tak Mansion, 14-36 Tso Kung Square, Tsuen Wan, Hong Kong"
素食工房,Tsuen Wan District,Tsuen Wan,楊屋道138號,$40,22.3663202,114.1181562,POINT Z (114.1181562 22.3663202 0),"Indi Home, 138 Yeung Uk Rd, Tsuen Wan, Hong Kong"
密密食,Tsuen Wan District,Tsuen Wan,荃灣兆和街38-40號,$30,22.371761,114.1178078,POINT Z (114.1178078 22.371761 0),"38-40 Shiu Wo St, Tsuen Wan, Hong Kong"
梨木樹酒家,Tsuen Wan District,Tsuen Wan,香港新界荃灣和宜合道389號,$35,22.3781944,114.1366988,POINT Z (114.1366988 22.3781944 0),"389 Wo Yi Hop Rd, Tsuen Wan, Hong Kong"
煮場館,Tsuen Wan District,Tsuen Wan,惠荃路22-66號,$30,22.3736,114.11923,POINT Z (114.11923 22.3736 0),"22-66 Wai Tsuen Rd, Tsuen Wan, Hong Kong"
超人雞煲烤魚,Tsuen Wan District,Tsuen Wan,沙咀道281號,$33,22.3694567,114.1172962,POINT Z (114.1172962 22.3694567 0),"281 Sha Tsui Rd, Tsuen Wan, Hong Kong"
熊貓美食,Tsuen Wan District,Tsuen Wan,川龍街81號,$37,22.3705256,114.1161094,POINT Z (114.1161094 22.3705256 0),"81 Chuen Lung St, Tsuen Wan, Hong Kong"
頹飯皇,Tsuen Wan District,Tsuen Wan,荃灣路德圍69號,$30,22.3731619,114.1158067,POINT Z (114.1158067 22.3731619 0),"69 Lo Tak Ct, Tsuen Wan, Hong Kong"
北冰洋,Sham Shui Po District,Lai Chi Kok,長沙灣青山道489-491號,$36,22.3375561,114.14673,POINT Z (114.14673 22.3375561 0),"Hong Kong Industrial Centre Block B, 489-491 Castle Peak Rd, Cheung Sha Wan, Hong Kong"
岱民利安店,Sha Tin District,Ma On Shan,馬鞍山沙安街23號,$25,22.4262194,114.2411298,POINT Z (114.2411298 22.4262194 0),"23 Sha On St, Ma On Shan, Hong Kong"
泰悅小廚,Sha Tin District,Ma On Shan,馬鞍山鞍祿街18號,$35,22.4240947,114.2305381,POINT Z (114.2305381 22.4240947 0),"18 On Luk St, Sha Tin, Hong Kong"
泰靚小廚,Sha Tin District,Ma On Shan,馬鞍山恆錦街1號,$30,22.4170475,114.2279433,POINT Z (114.2279433 22.4170475 0),"1 Hang Kam St, Ma On Shan, Hong Kong"
新康泰美食,Sha Tin District,Ma On Shan,馬鞍山鞍祿街18號,$30,22.42399551,114.2303879,POINT Z (114.2303879 22.42399551 0),"18 On Luk St, Sha Tin, Hong Kong"
岱民堅尼地城店,Central and Western District,Kennedy Town,卑路乍街127號,$25,22.2826037,114.1276592,POINT Z (114.1276592 22.2826037 0),"127 Belcher's St, Kennedy Town, Hong Kong"
阿英小食坊,Central and Western District,Kennedy Town,士美菲路43號,$36,22.282171,114.128109,POINT Z (114.128109 22.282171 0),"43 Smithfield, Kennedy Town, Hong Kong"
炫品食坊,Central and Western District,Kennedy Town,堅尼地城士美菲路12K號,$33,22.2816862,114.1286074,POINT Z (114.1286074 22.2816862 0),"Smithfield Municipal Services Building, 12K Smithfield, Kennedy Town, Hong Kong"
三餸飯,Sai Kung District,Tseung Kwan O,唐明街1號,$35,22.3111113,114.2621497,POINT Z (114.2621497 22.3111113 0),"1 Tong Ming St, Tseung Kwan O, Hong Kong"
永旺超市Aeon,Sai Kung District,Tseung Kwan O,將軍澳唐德街1號,$38,22.308295,114.26277,POINT Z (114.26277 22.308295 0),"1 Tong Tak St, Tseung Kwan O, Hong Kong"
金喜飽點美食,Sai Kung District,Tseung Kwan O,將軍澳唐德街2號,$33,22.31139337,114.2618585,POINT Z (114.2618585 22.31139337 0),"2 Tong Tak St, Tseung Kwan O, Hong Kong"
樂苑,Eastern District,Kornhill,康山康山道2號,$40,22.2841574,114.2164407,POINT Z (114.2164407 22.2841574 0),"2 Kornhill Rd, Kornhill, Hong Kong"
Aeon,Eastern District,Kornhill,康山道2號,$38,22.2842598,114.2160163,POINT Z (114.2160163 22.2842598 0),"2 Kornhill Rd, Kornhill, Hong Kong"
煮場館,Eastern District,Kornhill,,$25,22.2848144,114.2159423,POINT Z (114.2159423 22.2848144 0),
煮場館,Sai Kung District,LOHAS Park,將軍澳康城路1號,$42,22.2950229,114.269699,POINT Z (114.269699 22.2950229 0),"Lohas Park Phase 2b Le Prime Primroses, 1 Lohas Park Rd, Lohas Park, Hong Kong"
岱民(彩雲)茶餐廳,Wong Tai Sin District,Choi Wan,清水灣道45號,$25,22.3337874,114.2147761,POINT Z (114.2147761 22.3337874 0),"45 Clear Water Bay Rd, Ngau Chi Wan, Hong Kong"
岱民啟業店,Kwun Tong District,Kai Yip,九龍灣啟業邨啟賢樓,$28,22.3290676,114.2089108,POINT Z (114.2089108 22.3290676 0),"Kai Yip Estate Kai Yin House, 18 Kai Yip Rd, Kowloon Bay, Hong Kong"
德利小廚,Kowloon City District,Kai Tak,啟德沐寧街2號,$32,22.3301773,114.2002868,POINT Z (114.2002868 22.3301773 0),"2 Muk Ning St, Kowloon Bay, Hong Kong"
潮家酒樓,Kowloon City District,Kai Tak,啟晴邨,$27,22.3315129,114.2029424,POINT Z (114.2029424 22.3315129 0),"Hong Kong, Kowloon City, Muk Hung St, 12號啟晴邨"
真味屋,Tsuen Wan District,Lei Muk Shue,香港新界荃灣和宜合道389號,$35,22.37784653,114.1366739,POINT Z (114.1366739 22.37784653 0),"389 Wo Yi Hop Rd, Tsuen Wan, Hong Kong"
三多美食,Sham Shui Po District,Sham Shui Po,汝州街232號,$33,22.3298685,114.1617123,POINT Z (114.1617123 22.3298685 0),"232 Yu Chau St, Sham Shui Po, Hong Kong"
大碗飯皇,Sham Shui Po District,Sham Shui Po,桂林街48-50,$35,22.3322235,114.1630946,POINT Z (114.1630946 22.3322235 0),"Tung Tak Building, 48-50 Kweilin St, Un Chau, Hong Kong"
北河飯店,Sham Shui Po District,Sham Shui Po,深水埗大南街276號,$28,22.32852316,114.1616827,POINT Z (114.1616827 22.32852316 0),"276 Tai Nan St, Sham Shui Po, Hong Kong"
民旺(深水埗),Sham Shui Po District,Sham Shui Po,青山道100號A號舖,$28,22.335,114.16095,POINT Z (114.16095 22.335 0),"A號舖, Greenrich Mansion, 100 Castle Peak Rd, Lei Cheng Uk, Hong Kong"
永樂燒味廚房,Sham Shui Po District,Sham Shui Po,南昌街203-211號,$32,22.33171335,114.1653907,POINT Z (114.1653907 22.33171335 0),"Cheong Wah Building, 203-211 Nam Cheong St, Un Chau, Hong Kong"
宅伴廚房,Sham Shui Po District,Sham Shui Po,北河街205號,$28,22.3325315,114.1645301,POINT Z (114.1645301 22.3325315 0),"205 Pei Ho St, Sham Shui Po, Hong Kong"
金香庭,Sham Shui Po District,Sham Shui Po,長沙灣長沙灣道800號,$36,22.33825864,114.1487851,POINT Z (114.1487851 22.33825864 0),"Hong Kong Spinners Industrial Building, Phase 1 And 2, 800 Cheung Sha Wan Rd, Cheung Sha Wan, Hong Kong"
金發美食,Sham Shui Po District,Sham Shui Po,深水埗北河街155號,$30,22.3309881,114.1631247,POINT Z (114.1631247 22.3309881 0),"155 Pei Ho St, Un Chau, Hong Kong"
金翠餐廳,Sham Shui Po District,Sham Shui Po,深水埗福華街124號,$35,22.3313953,114.1627101,POINT Z (114.1627101 22.3313953 0),"124 Fuk Wa St, Sham Shui Po, Hong Kong"
星之選美食,Sham Shui Po District,Sham Shui Po,深水埗桂林街127號,$32,22.33061144,114.1612601,POINT Z (114.1612601 22.33061144 0),"127 Kweilin St, Sham Shui Po, Hong Kong"
食得樂,Sham Shui Po District,Sham Shui Po,深水埗北河街124A號,$35,22.3311776,114.1636083,POINT Z (114.1636083 22.3311776 0),"124 Pei Ho St, Un Chau, Hong Kong"
家家美食,Sham Shui Po District,Sham Shui Po,深水埗長沙灣道216號,$35,22.33104,114.162305,POINT Z (114.162305 22.33104 0),"Kam Sha Mansion, 212-216 Cheung Sha Wan Rd, Un Chau, Hong Kong"
浚利美食,Sham Shui Po District,Sham Shui Po,長沙灣道90號,$32,22.3286936,114.1651625,POINT Z (114.1651625 22.3286936 0),"90 Cheung Sha Wan Rd, Tong Mi, Hong Kong"
真滋味美食,Sham Shui Po District,Sham Shui Po,南昌街89號,$34,22.3282366,114.1621072,POINT Z (114.1621072 22.3282366 0),"89 Nam Cheong St, Sham Shui Po, Hong Kong"
素食工房,Sham Shui Po District,Sham Shui Po,深水埗欽州街37號,$32,22.33098864,114.1595078,POINT Z (114.1595078 22.33098864 0),"37 Yen Chow St, Sham Shui Po, Hong Kong"
陞爺三餸飯,Sham Shui Po District,Sham Shui Po,荔枝角道384號,$28,22.3295444,114.1595787,POINT Z (114.1595787 22.3295444 0),"384 Lai Chi Kok Rd, Sham Shui Po, Hong Kong"
密密煮,Sham Shui Po District,Sham Shui Po,汝州街282號,$30,22.3307959,114.1605452,POINT Z (114.1605452 22.3307959 0),"282 Yu Chau St, Sham Shui Po, Hong Kong"
添記燒臘茶餐廳,Sham Shui Po District,Sham Shui Po,深水埗北河街52號,$26,22.3284978,114.1612832,POINT Z (114.1612832 22.3284978 0),"52-56 Pei Ho Street, 52-56 Pei Ho St, Sham Shui Po, Hong Kong"
麥麥餸,Sham Shui Po District,Sham Shui Po,大埔道12A,$30,22.326879,114.167833,POINT Z (114.167833 22.326879 0),"12A Tai Po Rd, Tong Mi, Hong Kong"
喜記潮州鹵水飯店,Sham Shui Po District,Sham Shui Po,深水埗北河街62號,$30,22.32903737,114.1614345,POINT Z (114.1614345 22.32903737 0),"62 Pei Ho St, Sham Shui Po, Hong Kong"
源興美食,Sham Shui Po District,Sham Shui Po,深水埗欽州街37號,$33,22.3310175,114.1598202,POINT Z (114.1598202 22.3310175 0),"37 Yen Chow St, Sham Shui Po, Hong Kong"
鄭記大飯桶兩餸飯,Sham Shui Po District,Sham Shui Po,深水埗欽州街57號,$32,22.3327086,114.1615387,POINT Z (114.1615387 22.3327086 0),"Koon Kay Mansion, 57-63 Yen Chow St, Un Chau, Hong Kong"
膳心小館,Sham Shui Po District,Sham Shui Po,白田街13號,$38,22.3340746,114.1643429,POINT Z (114.1643429 22.3340746 0),"13 Pak Tin St, Shek Kip Mei, Hong Kong"
鑊氣三餸飯,Sham Shui Po District,Sham Shui Po,汝州街295號,$28,22.3305019,114.1605887,POINT Z (114.1605887 22.3305019 0),"295 Yu Chau St, Sham Shui Po, Hong Kong"
海岸冰室,Islands District,Discovery Bay,愉景灣D'Deck,$62,22.2962528,114.0166753,POINT Z (114.0166753 22.2962528 0),"8-12 Plaza Lane Discovery Bay, Lantau Island, Hong Kong"
Fusion by ParknShop,Islands District,Discovery Bay,愉景灣愉景灣道1號,$41,22.29525978,114.0166366,POINT Z (114.0166366 22.29525978 0),"Hillgrove Vill - Discovery Bay Glamour Court, 1 Discovery Bay Rd, Discovery Bay, Hong Kong"
岱民華貴店,Southern District,Wah Kwai,香港仔華貴邨華貴商場,$25,22.25016,114.13832,POINT Z (114.13832 22.25016 0),"Wah Kwai Estate Wah Oi House, Wah Kwai Rd, Pok Fu Lam, Hong Kong"
良發滷水店,Kwun Tong District,Shun Lee,茶寮坳利安道15號,$33,22.3329535,114.2250768,POINT Z (114.2250768 22.3329535 0),"15 Lee On Rd, Cha Liu Au, Hong Kong"
岱民順利店,Kwun Tong District,Shun Lee,九龍觀塘順利邨,$25,22.3315374,114.225687,POINT Z (114.225687 22.3315374 0),"Shun Lee Tsuen Rd, Cha Liu Au, Hong Kong"
八福小廚,Wong Tai Sin District,Wong Tai Sin,竹園環鳳街14號,$28,22.3437242,114.1980248,POINT Z (114.1980248 22.3437242 0),"Wah Chung House, 8-14 Wan Fung St, Chuk Un, Hong Kong"
大茶飯,Wong Tai Sin District,Wong Tai Sin,九龍黃大仙竹園道15號,$36,22.34399054,114.1938032,POINT Z (114.1938032 22.34399054 0),"15 Chuk Yuen Rd, Chuk Un, Hong Kong"
百佳超級市場,Wong Tai Sin District,Wong Tai Sin,竹園龍翔道136號,$30,22.3413905,114.194272,POINT Z (114.194272 22.3413905 0),"136 Lung Cheung Rd, Chuk Un, Hong Kong"
家家美食,Wong Tai Sin District,Wong Tai Sin,竹園雙鳳街16號,$33,22.3441427,114.1976556,POINT Z (114.1976556 22.3441427 0),"16 Sheung Fung St, Chuk Un, Hong Kong"
敏麗小廚,Wong Tai Sin District,Wong Tai Sin,竹園銀鳳街27號,$34,22.34475857,114.197867,POINT Z (114.197867 22.34475857 0),"27 Ngan Fung St, Chuk Un, Hong Kong"
德利小廚,Wong Tai Sin District,Wong Tai Sin,竹園南邨銀竹里,$30,22.34458,114.1905908,POINT Z (114.1905908 22.34458 0),"Chuk Yuen South Estate Wing Yuen House, 15 Chuk Yuen Rd, Chuk Un, Hong Kong"
九記,Southern District,Wong Chuk Hang,黃竹坑南朗山道1號,$45,22.24747,114.16639,POINT Z (114.16639 22.24747 0),"1 Nam Long Shan Rd, Wong Chuk Hang, Hong Kong"
寶寶餐廳小廚 ,Southern District,Wong Chuk Hang,香港仔黃竹坑深灣道2號,$43,22.2457365,114.1655729,POINT Z (114.1655729 22.2457365 0),"2 Shum Wan Rd, Wong Chuk Hang, Hong Kong"
一田超市,Wong Tai Sin District,San Po Kong,大子道東638號,$33,22.33330856,114.196784,POINT Z (114.196784 22.33330856 0),
宏興美食,Wong Tai Sin District,San Po Kong,彩虹道30-46號,$33,22.3344255,114.1946715,POINT Z (114.1946715 22.3344255 0),"30 Choi Hung Rd, San Po Kong, Hong Kong"
金翠餐廳,Wong Tai Sin District,San Po Kong,新蒲崗爵祿街36號,$35,22.3362258,114.1957446,POINT Z (114.1957446 22.3362258 0),"36 Tseuk Luk Street, 36 Tseuk Luk St, San Po Kong, Hong Kong"
思家菜,Kowloon City District,San Po Kong,新蒲崗六合街8號,$50,22.3367768,114.1995763,POINT Z (114.1995763 22.3367768 0),"Luk Hop Industrial Building, 8 Luk Hop St, San Po Kong, Hong Kong"
食家,Wong Tai Sin District,San Po Kong,新蒲崗五芳街8號,$36,22.3380473,114.1995296,POINT Z (114.1995296 22.3380473 0),"Lee Ka Industrial Building, 8 Ng Fong St, San Po Kong, Hong Kong"
得龍生哥美食,Wong Tai Sin District,San Po Kong,康強街33號,$40,22.3345768,114.1969976,POINT Z (114.1969976 22.3345768 0),"33 Hong Keung St, San Po Kong, Hong Kong"
添飯餸,Wong Tai Sin District,San Po Kong,新蒲崗大有街23號,$32,22.3379648,114.1988098,POINT Z (114.1988098 22.3379648 0),"No. 23 Tai Yau Street, San Po Kong, Hong Kong"
喜樂小廚,Wong Tai Sin District,San Po Kong,新蒲崗爵祿街72號,$38,22.3355753,114.1967664,POINT Z (114.1967664 22.3355753 0),"72 Tseuk Luk St, San Po Kong, Hong Kong"
港營彩頤店,Wong Tai Sin District,San Po Kong,九龍彩虹道242號 ,$28,22.33730194,114.2028301,POINT Z (114.2028301 22.33730194 0),"242 Choi Hung Rd, San Po Kong, Hong Kong"
新哥廚房,Wong Tai Sin District,San Po Kong,新蒲崗彩虹道242號,$28,22.33706413,114.2023448,POINT Z (114.2023448 22.33706413 0),"242 Choi Hung Rd, San Po Kong, Hong Kong"
潮人潮食,Wong Tai Sin District,San Po Kong,新蒲崗彩虹道242號,$32,22.3368281,114.2022683,POINT Z (114.2022683 22.3368281 0),"242 Choi Hung Rd, San Po Kong, Hong Kong"
糖川(在家美食),Wong Tai Sin District,San Po Kong,爵祿街50-58號,$36,22.3359928,114.1963717,POINT Z (114.1963717 22.3359928 0),"50 Tseuk Luk St, San Po Kong, Hong Kong"
豐味美食,Wong Tai Sin District,San Po Kong,大有街2-4號,$38,22.3389,114.1989374,POINT Z (114.1989374 22.3389 0),"2-4 Tai Yau St, San Po Kong, Hong Kong"
乜餸小廚,Eastern District,Shau Kei Wan,筲箕灣筲箕灣道307-309號,$32,22.27833739,114.2268061,POINT Z (114.2268061 22.27833739 0),"Tuck Wun Mansion, 307-309 Shau Kei Wan Rd, Shau Kei Wan, Hong Kong"
包點超人,Eastern District,Shau Kei Wan,筲箕灣南安街15號,$33,22.2776829,114.2276583,POINT Z (114.2276583 22.2776829 0),"15 Nam On St, Shau Kei Wan, Hong Kong"
岱民東大街店,Eastern District,Shau Kei Wan,筲箕灣筲箕灣東大街 54-60號,$25,22.2795686,114.2299247,POINT Z (114.2299247 22.2795686 0),"54-60A Shau Kei Wan Main St E, Shau Kei Wan, Hong Kong"
岱民筲箕灣店,Eastern District,Shau Kei Wan,筲箕灣道279號,$25,22.2789376,114.2263438,POINT Z (114.2263438 22.2789376 0),"279 Shau Kei Wan Rd, Shau Kei Wan, Hong Kong"
高山三和美食,Eastern District,Shau Kei Wan,筲箕灣筲箕灣東大街54-56號,$30,22.279554,114.23002,POINT Z (114.23002 22.279554 0),"54 Shau Kei Wan Main St E, Shau Kei Wan, Hong Kong"
超人燒鵝,Eastern District,Shau Kei Wan,筲箕灣筲箕灣道328號,$33,22.27885,114.22609,POINT Z (114.22609 22.27885 0),"328號 Shau Kei Wan Rd, Shau Kei Wan, Hong Kong"
一田超市,Kwai Tsing District,Kwai Fong,興芳路223號,$34,22.3574339,114.1261909,POINT Z (114.1261909 22.3574339 0),"223 Hing Fong Rd, Kwai Chung, Hong Kong"
人人有飯開,Kwai Tsing District,Kwai Fong,葵芳興芳路208號,$32,22.3589354,114.1271595,POINT Z (114.1271595 22.3589354 0),"208 Hing Fong Rd, Kwai Chung, Hong Kong"
小米美食,Kwai Tsing District,Kwai Fong,葵涌智芳街,$32,22.35932666,114.1277773,POINT Z (114.1277773 22.35932666 0),"Che Fong St, Kwai Chung, Hong Kong"
永樂燒味廚房,Kwai Tsing District,Kwai Fong,禮芳街5號,$32,22.3595694,114.1268191,POINT Z (114.1268191 22.3595694 0),"Kwai Fook Buildiing, 5-23 Lai Fong St, Kwai Chung, Hong Kong"
豐衣足食,Kwai Tsing District,Kwai Fong,智芳街1號,$30,22.3594342,114.1275391,POINT Z (114.1275391 22.3594342 0),"Hip Tak Building, 1 Che Fong St, Kwai Chung, Hong Kong"
利興牛什麵家 ,Kwai Tsing District,Kwai Chung,葵涌葵順街2號,$40,22.35414,114.12418,POINT Z (114.12418 22.35414 0),"2 Kwai Shun St, Kwai Chung, Hong Kong"
味食園,Kwai Tsing District,Kwai Chung,嘉定路2號,$35,22.358937,114.13175,POINT Z (114.13175 22.358937 0),"2 Ka Ting Rd, Kwai Chung, Hong Kong"
岱民石蔭店,Kwai Tsing District,Kwai Chung,和宜合道152號,$25,22.3694024,114.1391827,POINT Z (114.1391827 22.3694024 0),"152 Wo Yi Hop Rd, Shek Yam, Hong Kong"
返尋味美食,Kwai Tsing District,Kwai Chung,葵涌和宜合道138-160號,$35,22.3688043,114.139418,POINT Z (114.139418 22.3688043 0),"138 Wo Yi Hop Rd, Shek Yam, Hong Kong"
迪自由快餐,Kwai Tsing District,Kwai Chung,上角街,$28,22.36785454,114.1280974,POINT Z (114.1280974 22.36785454 0),"Sheung Kok St, Kwai Chung, Hong Kong"
風味兩餸,Kwai Tsing District,Kwai Chung,香港葵涌葵盛圍63號,$29,22.3635315,114.1292112,POINT Z (114.1292112 22.3635315 0),"63號 Kwai Shing Circuit, Kwai Chung, Hong Kong"
茶皇殿,Kwai Tsing District,Kwai Chung,葵涌上角街,$32,22.3681637,114.1277691,POINT Z (114.1277691 22.3681637 0),"Sheung Kok St, Kwai Chung, Hong Kong"
密密食,Kwai Tsing District,Kwai Chung,葵涌耀榮街4-6號,$30,22.3682952,114.1327414,POINT Z (114.1327414 22.3682952 0),"Kwai King Building, 4 Yiu Wing St, Kwai Chung, Hong Kong"
膳廚食堂,Kwai Tsing District,Kwai Chung,香港新界葵豐街18-26號,$40,22.3554814,114.124644,POINT Z (114.124644 22.3554814 0),"Wing Hong Factory Building, 18-26 Kwai Fung Cres, Kwai Chung, Hong Kong"
豐衣足食,Kwai Tsing District,Kwai Chung,葵盛圍63號,$32,22.36466,114.12711,POINT Z (114.12711 22.36466 0),"63號 Kwai Shing Circuit, Kwai Chung, Hong Kong"
麵家+餸飯,Kwai Tsing District,Kwai Chung,石蔭路2號,$35,22.367452,114.139353,POINT Z (114.139353 22.367452 0),"2 Shek Yam Rd, Kwai Chung, Hong Kong"
東裕燒臘飯店,Kwai Tsing District,Kwai Hing,葵涌禾葵里2號,$32,22.365584,114.132658,POINT Z (114.132658 22.365584 0),"2 Wo Kwai Ln, Kwai Chung, Hong Kong"
香蕉飯堂,Kwai Tsing District,Kwai Hing,新界葵興工業街10-14號,$36,22.3622852,114.1342154,POINT Z (114.1342154 22.3622852 0),"葵 兴, Wah Fat Industrial Building, 10-14 Kung Yip St, Kwai Chung, Hong Kong"
本灣海產,Wong Tai Sin District,Tsz Wan Shan,慈雲山毓華街23號,$25,22.3482388,114.2005514,POINT Z (114.2005514 22.3482388 0),"23 Yuk Wah St, Tsz Wan Shan, Hong Kong"
明興美食,Wong Tai Sin District,Tsz Wan Shan,慈雲山毓華街23號,$33,22.34765277,114.2009794,POINT Z (114.2009794 22.34765277 0),"23 Yuk Wah St, Tsz Wan Shan, Hong Kong"
敍苑粉麵,Wong Tai Sin District,Tsz Wan Shan,毓華街72號,$34,22.347007,114.202361,POINT Z (114.202361 22.347007 0),"72 Yuk Wah St, Tsz Wan Shan, Hong Kong"
撈得喜,Sai Kung District,Tsui Lam,翠琳路11號,$32,22.3226535,114.2493481,POINT Z (114.2493481 22.3226535 0),"11 Tsui Lam Rd, Tseung Kwan O, Hong Kong"
池記幸運星,Wan Chai District,Causeway Bay,銅鑼灣白沙道1-3號,$68,22.2790021,114.1837295,POINT Z (114.1837295 22.2790021 0),"1 Pak Sha Rd, Causeway Bay, Hong Kong"
岱民銅鑼灣店,Wan Chai District,Causeway Bay,銅鑼灣渣甸坊48號,$28,22.2790792,114.1852459,POINT Z (114.1852459 22.2790792 0),"48 Jardine's Cres, Causeway Bay, Hong Kong"
肥仔美食,Wan Chai District,Causeway Bay,銅鑼灣希雲街31A號,$35,22.2776117,114.1869139,POINT Z (114.1869139 22.2776117 0),"31 Haven St, Causeway Bay, Hong Kong"
香港人兩餸飯,Wan Chai District,Causeway Bay,銅鑼灣禮頓道希雲街1-5號,$35,22.2778546,114.1864278,POINT Z (114.1864278 22.2778546 0),"1-5 Haven St, So Kon Po, Hong Kong"
添飯餸,Wan Chai District,Causeway Bay,銅鑼灣渣甸街36號,$30,22.2794847,114.1854293,POINT Z (114.1854293 22.2794847 0),"36 Jardine's Bazaar, Causeway Bay, Hong Kong"
惠康超級市場,Wan Chai District,Causeway Bay,銅鑼灣記利佐治街25-29號,$34,22.281217,114.1862779,POINT Z (114.1862779 22.281217 0),"25 Great George St, Causeway Bay, Hong Kong"
超人燒鵝,Wan Chai District,Causeway Bay,灣仔堅拿道西10號,$35,22.2787292,114.1809462,POINT Z (114.1809462 22.2787292 0),"Top View Mansion, 10 Canal Rd W, Wan Chai, Hong Kong"
銀河廚房,Kowloon City District,Lok Fu,聯合道198號,$30,22.3377498,114.1867145,POINT Z (114.1867145 22.3377498 0),"198 Junction Rd, Lo Fu Ngam, Hong Kong"
UNY,Wong Tai Sin District,Lok Fu,黃大仙聯合道198號,$36,22.3382401,114.1872689,POINT Z (114.1872689 22.3382401 0),"Lok Fu Place Zone A, 198 Junction Rd, Wang Tau Hom, Hong Kong"
強記正宗潮州鹵味燒味 ,Sai Kung District,Tiu Keng Leng,將軍澳彩明街1號,$33,22.3062,114.25245,POINT Z (114.25245 22.3062 0),"1 Choi Ming St, Tiu Keng Wan, Hong Kong"
富豪燒味,Sai Kung District,Tiu Keng Leng,將軍澳彩明街1號,$33,22.30638,114.25238,POINT Z (114.25238 22.30638 0),"1 Choi Ming St, Tiu Keng Wan, Hong Kong"
豪宴海鮮酒家,Sai Kung District,Tiu Keng Leng,將軍澳調景嶺景嶺路8號,$32,22.3044835,114.2528669,POINT Z (114.2528669 22.3044835 0),"8 King Ling Rd, Tiu Keng Wan, Hong Kong"
Fusion by ParknShop,Sai Kung District,Tiu Keng Leng,將軍澳景嶺路8號,$30,22.3046676,114.2521253,POINT Z (114.2521253 22.3046676 0),"8 King Ling Rd, Tiu Keng Wan, Hong Kong"
在一起 Cafe Together,Yuen Long District,Kam Tin,錦田錦上路71號,$38,22.4332198,114.0711461,POINT Z (114.0711461 22.4332198 0),"71 Kam Sheung Rd, Shek Kong, Hong Kong"
岱民西邨店,Southern District,Ap Lei Chau,鴨脷洲鴨脷洲橋道322號,$25,22.2444931,114.149458,POINT Z (114.149458 22.2444931 0),"322 Ap Lei Chau Bridge Rd, Ap Lei Chau, Hong Kong"
德利美食,Southern District,Pok Fu Lam,薄扶林道,$29,22.25794,114.13879,POINT Z (114.13879 22.25794 0),"Pok Fu Lam Rd, Hong Kong"
民天小廚,Kwun Tong District,Lam Tin,九龍觀塘藍田啟田道50號,$35,22.309093,114.2343596,POINT Z (114.2343596 22.309093 0),"50 Kai Tin Rd, Lam Tin, Hong Kong"
百佳超級市場,Kwun Tong District,Lam Tin,九龍藍田匯景道8號,$29,22.3069942,114.2335707,POINT Z (114.2335707 22.3069942 0),"8 Sceneway Rd, Sceneway Garden, Hong Kong"
明興美食,Kwun Tong District,Lam Tin,碧雲道223號,$28,22.31024,114.23794,POINT Z (114.23794 22.31024 0),"223 Pik Wan Rd, Lam Tin, Hong Kong"
家餸小廚,Kwun Tong District,Lam Tin,藍田啓田道51號67C號,$35,22.308216,114.234311,POINT Z (114.234311 22.308216 0),"67c 号, Kai Tin Towers, 49-67 Kai Tin Rd, Lam Tin, Hong Kong"
餸多多,Kwun Tong District,Lam Tin,啟田大廈,$25,22.3083379,114.2341738,POINT Z (114.2341738 22.3083379 0),"Kai Tin Towers, 49-67 Kai Tin Rd, Lam Tin, Hong Kong"
日嚐,Sai Kung District,Po Lam,將軍澳欣景路8號,$39,22.32246904,114.2583568,POINT Z (114.2583568 22.32246904 0),"Metro City Plaza II, 8 Yan King Rd, Metro City, Hong Kong"
加餸堂,Sai Kung District,Po Lam,佳景路,$25,22.3206427,114.2615146,POINT Z (114.2615146 22.3206427 0),"Kai King Rd, Tseung Kwan O, Hong Kong"
正興美食,Sai Kung District,Po Lam,寶林邨,$33,22.325282,114.25487,POINT Z (114.25487 22.325282 0),"Hong Kong, Tseung Kwan O, Po Lam Rd N, 18號寶琳"
泰靚小廚,Sai Kung District,Po Lam,欣景路8號,$30,22.3233143,114.2581878,POINT Z (114.2581878 22.3233143 0),"Metro City Plaza II, 8 Yan King Rd, Metro City, Hong Kong"
UNY生活創庫,Sai Kung District,Po Lam,欣景路8號,$40,22.3241364,114.2571874,POINT Z (114.2571874 22.3241364 0),"Metro City Plaza II, 8 Yan King Rd, Metro City, Hong Kong"
南苑美食,Eastern District,Quarry Bay,鰂魚涌芬尼街2B,$40,22.2882201,114.2104248,POINT Z (114.2104248 22.2882201 0),"2 Finnie St, Quarry Bay, Hong Kong"
香港人兩餸飯,Eastern District,Quarry Bay,鰂魚涌芬尼街22-46號,$34,22.28879,114.2105,POINT Z (114.2105 22.28879 0),"22-46 Finnie St, Quarry Bay, Hong Kong"
家之味,Eastern District,Quarry Bay,海堤街5號,$38,22.28846,114.21106,POINT Z (114.21106 22.28846 0),"Hoi Tai St, Quarry Bay, Hong Kong"
凝香園,Eastern District,Quarry Bay,海光街13號,,22.28789845,114.21103,POINT Z (114.21103 22.28789845 0),"13 Hoi Kwong St, Quarry Bay, Hong Kong"
Thai Kitchen by Chanatcha,Eastern District,Quarry Bay,鰂魚涌海光街 7-9 號,$50,22.2882798,114.211047,POINT Z (114.211047 22.2882798 0),"7-9 Hoi Kwong St, Quarry Bay, Hong Kong"
135果園雞,Wan Chai District,Wan Chai,灣仔皇后大道東247-249號,$48,22.2747517,114.1736287,POINT Z (114.1736287 22.2747517 0),"247 Queen's Rd E, Wan Chai, Hong Kong"
大亨廊,Wan Chai District,Wan Chai,謝斐道138號,$36,22.2786515,114.1736727,POINT Z (114.1736727 22.2786515 0),"138 Jaffe Rd, Wan Chai, Hong Kong"
小苗子,Wan Chai District,Wan Chai,灣仔軒尼詩道181號,$39,22.2779523,114.1741021,POINT Z (114.1741021 22.2779523 0),"Hong Fu Building, 179-181 Hennessy Rd, Wan Chai, Hong Kong"
天然齋,Wan Chai District,Wan Chai,謝斐道254-272號,$35,22.2790464,114.1771209,POINT Z (114.1771209 22.2790464 0),"Tonnochy Towers, 254-272 Jaffe Rd, Wan Chai, Hong Kong"
平民美食坊,Wan Chai District,Wan Chai,灣仔軒尼詩道225號,$36,22.2780354,114.1754343,POINT Z (114.1754343 22.2780354 0),"225 Hennessy Rd, Wan Chai, Hong Kong"
老廣味小排檔,Wan Chai District,Wan Chai,灣仔莊士敦道214號,$38,22.277411,114.1764243,POINT Z (114.1764243 22.277411 0),"Tai Hei Building, 214-216 Johnston Rd, Wan Chai, Hong Kong"
佳記美食,Wan Chai District,Wan Chai,軒尼詩道233號,$35,22.2780657,114.1757349,POINT Z (114.1757349 22.2780657 0),"Eastman Court, 229-233 Hennessy Rd, Wan Chai, Hong Kong"
味龍美食坊 ,Wan Chai District,Wan Chai,灣仔柯布連道6A號,$36,22.2785129,114.1730338,POINT Z (114.1730338 22.2785129 0),"Yee On Mansion, 6A-B O'brien Rd, Wan Chai, Hong Kong"
岱民灣仔店,Wan Chai District,Wan Chai,軒尼詩道365-367,$28,22.2789653,114.17943,POINT Z (114.17943 22.2789653 0),"Foo Tak Building, 365-367 Hennessy Rd, Wan Chai, Hong Kong"
林記灣仔美食,Wan Chai District,Wan Chai,灣仔天樂里15號,$35,22.2783936,114.1798104,POINT Z (114.1798104 22.2783936 0),"3-15 Tin Lok Ln, Wan Chai, Hong Kong"
表妹餐廳,Wan Chai District,Wan Chai,灣仔機利臣街3號,$42,22.2765493,114.1698347,POINT Z (114.1698347 22.2765493 0),"3 Gresson St, Wan Chai, Hong Kong"
金蒂餐廳,Wan Chai District,Wan Chai,灣仔謝斐道69號,$42,22.278786,114.170908,POINT Z (114.170908 22.278786 0),"69 Jaffe Rd, Wan Chai, Hong Kong"
高妹廚房,Wan Chai District,Wan Chai,灣仔柯布連道7C號,$39,22.2777822,114.1734434,POINT Z (114.1734434 22.2777822 0),"7C O'brien Rd, Wan Chai, Hong Kong"
添飯餸,Wan Chai District,Wan Chai,香港灣仔軒尼詩道176-178號,$30,22.2774947,114.1739627,POINT Z (114.1739627 22.2774947 0),"Luen Sen Mansion, 176-178 Hennessy Rd, Wan Chai, Hong Kong"
惠康超級市場 ,Wan Chai District,Wan Chai,莊士敦道18號,$45,22.2769645,114.1699917,POINT Z (114.1699917 22.2769645 0),"Everwin Mansion, 18 Johnston Rd, Wan Chai, Hong Kong"
楚留香美食,Wan Chai District,Wan Chai,灣仔軒尼詩道164-166號,$38,22.2774445,114.173659,POINT Z (114.173659 22.2774445 0),"Hennessy Plaza, 164-166 Hennessy Rd, Wan Chai, Hong Kong"
聖雅各福群會 雅膳坊,Wan Chai District,Wan Chai,石水渠街85號,$32,22.2733649,114.173637,POINT Z (114.173637 22.2733649 0),"St. James' Settlement Community Centre, 85 Stone Nullah Ln, Wan Chai, Hong Kong"
頌興餐廳小廚,Wan Chai District,Wan Chai,軒尼詩道23-25號地下,$33,22.2778482,114.1698976,POINT Z (114.1698976 22.2778482 0),"23 Hennessy Rd, Wan Chai, Hong Kong"
德記外賣美食小店,Wan Chai District,Wan Chai,灣仔軒尼詩道225號,$30,22.27829893,114.1753781,POINT Z (114.1753781 22.27829893 0),"225 Hennessy Rd, Wan Chai, Hong Kong"
潮香園美食,Wan Chai District,Wan Chai,灣仔柯布連道4號,$36,22.2783698,114.1730606,POINT Z (114.1730606 22.2783698 0),"4 O'brien Rd, Wan Chai, Hong Kong"
噹噹餸,Wan Chai District,Wan Chai,香港灣仔軒尼詩道78號,$41,22.2773301,114.1714083,POINT Z (114.1714083 22.2773301 0),"Wai Lun Mansion, 78-84A Hennessy Rd, Wan Chai, Hong Kong"
駱克美食,Wan Chai District,Wan Chai,駱克道123號,$40,22.2782698,114.1727299,POINT Z (114.1727299 22.2782698 0),"On On Mansion, 123-125A Lockhart Rd, Wan Chai, Hong Kong"
餸潮,Wan Chai District,Wan Chai,灣仔灣仔道177～179號,$30,22.2769875,114.1772891,POINT Z (114.1772891 22.2769875 0),"179 号, 177 Wan Chai Rd, Wan Chai, Hong Kong"
麗姐廚房,Wan Chai District,Wan Chai,灣仔譚臣道105-111號,,22.2772948,114.1739859,POINT Z (114.1739859 22.2772948 0),"Harvard Commercial Building, 105-111 Thomson Rd, Wan Chai, Hong Kong"
Eat道,Wan Chai District,Wan Chai,譚臣道99號,$40,22.2772769,114.1736841,POINT Z (114.1736841 22.2772769 0),"Thompson Building, 99號 Thomson Rd, Wan Chai, Hong Kong"
U Select,Wan Chai District,Wan Chai,灣仔港灣道28號,$42,22.2802899,114.1761456,POINT Z (114.1761456 22.2802899 0),"28 Harbour Rd, Wan Chai, Hong Kong"
一田超市,Kwun Tong District,Kwun Tong,觀塘觀塘道418號,$35,22.312401,114.225222,POINT Z (114.225222 22.312401 0),"418 Kwun Tong Rd, Kwun Tong, Hong Kong"
乜餸燒鵝,Kwun Tong District,Kwun Tong,成業街16號,$39,22.3099421,114.2259542,POINT Z (114.2259542 22.3099421 0),"East Sun Industrial Centre, 16 Shing Yip St, Kwun Tong, Hong Kong"
三餸一湯,Kwun Tong District,Kwun Tong,協和街139號H,$30,22.3161586,114.2260519,POINT Z (114.2260519 22.3161586 0),"h, 139 Hip Wo St, Kwun Tong, Hong Kong"
日昇食堂,Kwun Tong District,Kwun Tong,觀塘成業街27號,$42,22.3091464,114.2284102,POINT Z (114.2284102 22.3091464 0),"27 Shing Yip St, Kwun Tong, Hong Kong"
古老燒鵝大王,Kwun Tong District,Kwun Tong,香港觀塘物華街53號,$38,22.315242,114.224989,POINT Z (114.224989 22.315242 0),"Wah On House, 43-53 Mut Wah St, Kwun Tong, Hong Kong"
安發小食店,Kwun Tong District,Kwun Tong,觀塘瑞寧街18B號,$19,22.3163092,114.2246403,POINT Z (114.2246403 22.3163092 0),"18 Shui Ning St, Kwun Tong, Hong Kong"
有鑊氣家常小菜,Kwun Tong District,Kwun Tong,駿業街60號,$33,22.3112904,114.2232143,POINT Z (114.2232143 22.3112904 0),"Tsun Win Factory Building, 60 Tsun Yip St, Kwun Tong, Hong Kong"
夾餸,Kwun Tong District,Kwun Tong,觀塘開源道63號,$35,22.310794,114.2247003,POINT Z (114.2247003 22.310794 0),"Fook Cheong Building, 63 Hoi Yuen Rd, Kwun Tong, Hong Kong"
岱民翠屏店,Kwun Tong District,Kwun Tong,九龍觀塘翠屏道19號,$25,22.3157398,114.2298086,POINT Z (114.2298086 22.3157398 0),"19 Tsui Ping Rd, Kwun Tong, Hong Kong"
時惠快餐,Kwun Tong District,Kwun Tong,觀塘協和街183號,$30,22.31703334,114.2263889,POINT Z (114.2263889 22.31703334 0),"183 Hip Wo St, Kwun Tong, Hong Kong"
泰靚小廚,Kwun Tong District,Kwun Tong,輔仁街53號,$30,22.3151202,114.2244468,POINT Z (114.2244468 22.3151202 0),"51-53 Fu Yan St, Kwun Tong, Hong Kong"
晴朗小食,Kwun Tong District,Kwun Tong,觀塘巧明街107號,,22.3121642,114.2241663,POINT Z (114.2241663 22.3121642 0),"Kwok Kee Group Centre, 107 How Ming St, Kwun Tong, Hong Kong"
超人燒鵝,Kwun Tong District,Kwun Tong,物華街45號,$34,22.315189,114.2249519,POINT Z (114.2249519 22.315189 0),"45 Mut Wah St, Kwun Tong, Hong Kong"
飯桶,Kwun Tong District,Kwun Tong,觀塘道396號,$38,22.3132677,114.2222855,POINT Z (114.2222855 22.3132677 0),"Everest Industrial Centre, 396 Kwun Tong Rd, Kwun Tong, Hong Kong"
嘉樂美食,Kwun Tong District,Kwun Tong,嘉樂街51號,$26,22.3167164,114.2256988,POINT Z (114.2256988 22.3167164 0),"35-51 Ka Lok St, Kwun Tong, Hong Kong"
廚太郎,Kwun Tong District,Kwun Tong,康寧道41號,$32,22.314886,114.2233536,POINT Z (114.2233536 22.314886 0),"25-41 Hong Ning Rd, Ngau Tau Kok, Hong Kong"
營民嘉和店,Kwun Tong District,Kwun Tong,嘉樂街22號,$28,22.3163461,114.2255595,POINT Z (114.2255595 22.3163461 0),"22 Ka Lok St, Kwun Tong, Hong Kong"
鴻圖樓,Kwun Tong District,Kwun Tong,鴻圖道30號,,22.3125205,114.2199752,POINT Z (114.2199752 22.3125205 0),"30 Hung To Rd, Kwun Tong, Hong Kong"
佳坊美食,Wong Tai Sin District,Diamond Hill,鑽石山彩虹道235號,$33,22.34005746,114.200407,POINT Z (114.200407 22.34005746 0),"Kai Chuen Shopping Centre, 235號 Choi Hung Rd, Chuk Un, Hong Kong"
明興美食,Wong Tai Sin District,Diamond Hill,鑽石山鳳德道111號,$30,22.3443677,114.2012804,POINT Z (114.2012804 22.3443677 0),"Fung Tak Estate Car Park, 111 Fung Tak Rd, Diamond Hill, Hong Kong"
紅樓,Wong Tai Sin District,Diamond Hill,鑽石山彩虹道235號,$33,22.3396783,114.1995529,POINT Z (114.1995529 22.3396783 0),"Kai Chuen Shopping Centre, 235號 Choi Hung Rd, Chuk Un, Hong Kong"